{
"type": "FeatureCollection",
"name": "reclamos_rv",
"crs": { "type": "name", "properties": { "name": "urn:ogc:def:crs:OGC:1.3:CRS84" } },
"features": [
{ "type": "Feature", "properties": { "Nro": 30956, "Fecha": "23/01/2026 07:22", "Tipo": "WEB", "Usuario": "Gabriela Ortubia", "Área": "Reclamos", "Estado": "Proceso - Electrotécnia", "Nombre": "Elvira Gabriela", "Apellido": "Ortubia", "DNI": "22144997", "Fecha Nacimiento": "02/05/1971", "Tel. Móvil": "2634686798", "Tel. Fijo": null, "Correo electrónico": "gabrielaortubia186@gmail.com", "Tipo de reclamo": "Luminaria", "Descripción del reclamo": "20 Luminarias", "Domicilio del reclamo": "-33.1860952530579,-68.567144479765", "Y": -33.1860952530579, "X": -68.567144479765005, "Escriba el domicilio del reclamo, barrio y distrito": "Calle Albardón pasando el puente del rio hacia lo Bocardo (tramo de Chilecito a lo bocardo )", "Adjunte foto del reclamo": null, "Usuario_1": "Gabriela Ortubia", "Fecha Solución": "23/01/2026 07:27", "Solución": "Le informamos que su reclamo ha sido derivado al área correspondiente.", "TIPO_S": "Reparacion / Reposicion" }, "geometry": { "type": "Point", "coordinates": [ -68.567144479765005, -33.1860952530579 ] } },
{ "type": "Feature", "properties": { "Nro": 33297, "Fecha": "16/02/2026 19:20", "Tipo": "WEB", "Usuario": "Gabriela Ortubia", "Área": "Reclamos", "Estado": "Proceso - Electrotécnia", "Nombre": "Ruth", "Apellido": "Canciani", "DNI": "2634519731", "Fecha Nacimiento": null, "Tel. Móvil": "2634519731", "Tel. Fijo": null, "Correo electrónico": "municipalidadrivadaviareclamos@gmail.com", "Tipo de reclamo": "Luminaria", "Descripción del reclamo": "Los vecinos dicen que han presentado una nota pidiendo luminarias y todavía no hay repuesta", "Domicilio del reclamo": "-33.1885823820734,-68.451337423338", "Y": -33.188582382073399, "X": -68.451337423338003, "Escriba el domicilio del reclamo, barrio y distrito": "Calle Dangelo  entre Mariano Gomez y Los Maitenes y calle Dangelo y Leonor Lemos", "Adjunte foto del reclamo": null, "Usuario_1": "Gabriela Ortubia", "Fecha Solución": "16/02/2026 19:25", "Solución": "Le informamos que su reclamo ha sido derivado al área correspondiente.", "TIPO_S": "Reparacion / Reposicion" }, "geometry": { "type": "Point", "coordinates": [ -68.451337423338003, -33.188582382073399 ] } },
{ "type": "Feature", "properties": { "Nro": 36192, "Fecha": "13/03/2026 10:16", "Tipo": "WEB", "Usuario": "Gabriela Ortubia", "Área": "Reclamos", "Estado": "Proceso - Electrotécnia", "Nombre": "Laura", "Apellido": "Pereyra", "DNI": "28443783", "Fecha Nacimiento": null, "Tel. Móvil": "2634671653", "Tel. Fijo": null, "Correo electrónico": "municipalidadrivadaviareclamos@gmail.com", "Tipo de reclamo": "Luminaria", "Descripción del reclamo": "6 Luminarias quemadas", "Domicilio del reclamo": "-33.1951096375026,-68.426049556746", "Y": -33.195109637502597, "X": -68.426049556745994, "Escriba el domicilio del reclamo, barrio y distrito": "CALLE AVELLANEDA Y RECONQUISTA ( Santa Maria de Oro )", "Adjunte foto del reclamo": null, "Usuario_1": "Gabriela Ortubia", "Fecha Solución": "13/03/2026 10:21", "Solución": "Le informamos que su reclamo ha sido derivado al área correspondiente.", "TIPO_S": "Reparacion / Reposicion" }, "geometry": { "type": "Point", "coordinates": [ -68.426049556745994, -33.195109637502597 ] } },
{ "type": "Feature", "properties": { "Nro": 37315, "Fecha": "17/03/2026 07:44", "Tipo": "WEB", "Usuario": "Gabriela Ortubia", "Área": "Reclamos", "Estado": "Proceso - Electrotécnia", "Nombre": "Cristian", "Apellido": "Devito", "DNI": "22585580", "Fecha Nacimiento": null, "Tel. Móvil": "2634595580", "Tel. Fijo": null, "Correo electrónico": "municipalidadrivadaviareclamos@gmail.com", "Tipo de reclamo": "Luminaria", "Descripción del reclamo": "Caja Frente cancha Futbol ( Predio vias )", "Domicilio del reclamo": "-33.1950737254611,-68.472151365294", "Y": -33.1950737254611, "X": -68.472151365293996, "Escriba el domicilio del reclamo, barrio y distrito": "Calle Ameghino ( predio futsail ) parte interna", "Adjunte foto del reclamo": null, "Usuario_1": "Gabriela Ortubia", "Fecha Solución": "17/03/2026 07:50", "Solución": "Le informamos que su reclamo ha sido derivado al área correspondiente.", "TIPO_S": "Reparacion / Reposicion" }, "geometry": { "type": "Point", "coordinates": [ -68.472151365293996, -33.1950737254611 ] } },
{ "type": "Feature", "properties": { "Nro": 38102, "Fecha": "25/03/2026 11:29", "Tipo": "WEB", "Usuario": "Gabriela Ortubia", "Área": "Reclamos", "Estado": "Proceso - Electrotécnia", "Nombre": "Nancy Edith", "Apellido": "Rodriguez", "DNI": "12931972", "Fecha Nacimiento": null, "Tel. Móvil": "SIN DATOS", "Tel. Fijo": null, "Correo electrónico": "municipalidadrivadaviareclamos@gmail.com", "Tipo de reclamo": "Luminaria", "Descripción del reclamo": "1 Luminaria", "Domicilio del reclamo": "-33.1693928466792,-68.453332986845", "Y": -33.169392846679202, "X": -68.453332986844998, "Escriba el domicilio del reclamo, barrio y distrito": "B° 71 VIVIENDA MANZ G CASA 8", "Adjunte foto del reclamo": null, "Usuario_1": "Gabriela Ortubia", "Fecha Solución": "25/03/2026 11:32", "Solución": "Le informamos que su reclamo ha sido derivado al área correspondiente.", "TIPO_S": "Reparacion / Reposicion" }, "geometry": { "type": "Point", "coordinates": [ -68.453332986844998, -33.169392846679202 ] } },
{ "type": "Feature", "properties": { "Nro": 41413, "Fecha": "17/04/2026 09:52", "Tipo": "WEB", "Usuario": "Daiana Ledesma", "Área": "Reclamos", "Estado": "Proceso - Electrotécnia", "Nombre": "Jorge Andrés", "Apellido": "Vega", "DNI": "40003342", "Fecha Nacimiento": null, "Tel. Móvil": "2634504139", "Tel. Fijo": null, "Correo electrónico": "municipalidadrivadaviareclamos@gmail.com", "Tipo de reclamo": "Luminaria", "Descripción del reclamo": "varias revisar el B°", "Domicilio del reclamo": "-33.2035485588613,-68.44264706613", "Y": -33.2035485588613, "X": -68.442647066129993, "Escriba el domicilio del reclamo, barrio y distrito": "B° costa canal mz B casa 15", "Adjunte foto del reclamo": null, "Usuario_1": "Daiana Ledesma", "Fecha Solución": "17/04/2026 09:54", "Solución": "Le informamos que su reclamo ha sido derivado al área correspondiente.", "TIPO_S": "Reparacion / Reposicion" }, "geometry": { "type": "Point", "coordinates": [ -68.442647066129993, -33.2035485588613 ] } },
{ "type": "Feature", "properties": { "Nro": 44863, "Fecha": "27/04/2026 07:38", "Tipo": "WEB", "Usuario": "Daiana Ledesma", "Área": "Reclamos", "Estado": "Proceso - Electrotécnia", "Nombre": "Daiana", "Apellido": "Ledesma", "DNI": "34283962", "Fecha Nacimiento": "13/04/1989", "Tel. Móvil": "2634616766", "Tel. Fijo": null, "Correo electrónico": "demaldedayii27@gmail.com", "Tipo de reclamo": "Luminaria", "Descripción del reclamo": "1 luminaria", "Domicilio del reclamo": "-33.1842758640781,-68.471393287103", "Y": -33.184275864078103, "X": -68.471393287102998, "Escriba el domicilio del reclamo, barrio y distrito": "calle enfrente de escuela formosa", "Adjunte foto del reclamo": null, "Usuario_1": "Daiana Ledesma", "Fecha Solución": "27/04/2026 07:40", "Solución": "Le informamos que su reclamo ha sido derivado al área correspondiente.", "TIPO_S": "Reparacion / Reposicion" }, "geometry": { "type": "Point", "coordinates": [ -68.471393287102998, -33.184275864078103 ] } },
{ "type": "Feature", "properties": { "Nro": 45001, "Fecha": "27/04/2026 10:44", "Tipo": "WEB", "Usuario": "Gabriela Ortubia", "Área": "Reclamos", "Estado": "Proceso - Electrotécnia", "Nombre": "Carlos", "Apellido": "Sosa", "DNI": "8072455", "Fecha Nacimiento": null, "Tel. Móvil": "SIN DATOS", "Tel. Fijo": null, "Correo electrónico": "municipalidadrivadaviareclamos@gmail.com", "Tipo de reclamo": "Luminaria", "Descripción del reclamo": "Varias Luminarias", "Domicilio del reclamo": "-33.1808693584416,-68.449652996077", "Y": -33.180869358441598, "X": -68.449652996077006, "Escriba el domicilio del reclamo, barrio y distrito": "Barrio Inmaculada manz  B casa 1", "Adjunte foto del reclamo": null, "Usuario_1": "Gabriela Ortubia", "Fecha Solución": "27/04/2026 10:49", "Solución": "Le informamos que su reclamo ha sido derivado al área correspondiente.", "TIPO_S": "Reparacion / Reposicion" }, "geometry": { "type": "Point", "coordinates": [ -68.449652996077006, -33.180869358441598 ] } },
{ "type": "Feature", "properties": { "Nro": 46886, "Fecha": "05/05/2026 11:27", "Tipo": "WEB", "Usuario": null, "Área": "Reclamos", "Estado": "Proceso - Electrotécnia", "Nombre": "Walter", "Apellido": "Moya", "DNI": "35628985", "Fecha Nacimiento": null, "Tel. Móvil": "2634592538", "Tel. Fijo": null, "Correo electrónico": "moyawalter92@gmail.com", "Tipo de reclamo": "Luminaria", "Descripción del reclamo": "Luminarias en mal estado desde plaza de los burros a dique Benegas x ruta 62", "Domicilio del reclamo": "-33.2349614751215,-68.659195996751", "Y": -33.234961475121501, "X": -68.659195996750995, "Escriba el domicilio del reclamo, barrio y distrito": "Reducción de arriba desde plaza de los burros a dique Benegas x ruta 62", "Adjunte foto del reclamo": null, "Usuario_1": "Gabriela Ortubia", "Fecha Solución": "05/05/2026 11:32", "Solución": "Le informamos que su reclamo ha sido derivado al área correspondiente.", "TIPO_S": "Reparacion / Reposicion" }, "geometry": { "type": "Point", "coordinates": [ -68.659195996750995, -33.234961475121501 ] } },
{ "type": "Feature", "properties": { "Nro": 48197, "Fecha": "15/05/2026 12:20", "Tipo": "WEB", "Usuario": null, "Área": "Reclamos", "Estado": "Proceso - Electrotécnia", "Nombre": "Maria de Lourdes", "Apellido": "Sosa", "DNI": "34617993", "Fecha Nacimiento": "02/02/1990", "Tel. Móvil": "2634558470", "Tel. Fijo": null, "Correo electrónico": "malousosa990@gmail.com", "Tipo de reclamo": "Luminaria", "Descripción del reclamo": "Foco quemado", "Domicilio del reclamo": "-33.184701620007,-68.564811001469", "Y": -33.184701620006997, "X": -68.564811001468996, "Escriba el domicilio del reclamo, barrio y distrito": "Barrio madreselva manzana D casa 1", "Adjunte foto del reclamo": null, "Usuario_1": "Gabriela Ortubia", "Fecha Solución": "15/05/2026 13:06", "Solución": "Le informamos que su reclamo ha sido derivado al área correspondiente", "TIPO_S": "Reparacion / Reposicion" }, "geometry": { "type": "Point", "coordinates": [ -68.564811001468996, -33.184701620006997 ] } },
{ "type": "Feature", "properties": { "Nro": 48336, "Fecha": "18/05/2026 13:41", "Tipo": "WEB", "Usuario": "Gabriela Ortubia", "Área": "Reclamos", "Estado": "Proceso - Electrotécnia", "Nombre": "Argentina", "Apellido": "Suarez", "DNI": "4949982", "Fecha Nacimiento": null, "Tel. Móvil": "2617604044", "Tel. Fijo": null, "Correo electrónico": "municipalidadrivadaviareclamos@gmail.com", "Tipo de reclamo": "Luminaria", "Descripción del reclamo": "La vecina solicita  cambio de poste de luz ( rama afirmada sobre el poste )", "Domicilio del reclamo": "-33.215621983877,-68.501419630064", "Y": -33.215621983877, "X": -68.501419630064007, "Escriba el domicilio del reclamo, barrio y distrito": "Barrio La Libertad manz D  Casa 2", "Adjunte foto del reclamo": null, "Usuario_1": "Gabriela Ortubia", "Fecha Solución": "18/05/2026 13:52", "Solución": "Le informamos que su reclamo ha sido derivado al área correspondiente.", "TIPO_S": "Infraestructura" }, "geometry": { "type": "Point", "coordinates": [ -68.501419630064007, -33.215621983877 ] } },
{ "type": "Feature", "properties": { "Nro": 49070, "Fecha": "27/05/2026 11:10", "Tipo": "WEB", "Usuario": "Gabriela Ortubia", "Área": "Reclamos", "Estado": "Proceso - Electrotécnia", "Nombre": "LUIS CARLOS", "Apellido": "AGUERO ,", "DNI": "14349148", "Fecha Nacimiento": "01/09/1961", "Tel. Móvil": "2634664411", "Tel. Fijo": "no", "Correo electrónico": "rivadavia@gmail.com", "Tipo de reclamo": "Luminaria", "Descripción del reclamo": "4 Luminarias", "Domicilio del reclamo": "-33.1686205078836,-68.439921941771", "Y": -33.168620507883602, "X": -68.439921941771004, "Escriba el domicilio del reclamo, barrio y distrito": "Calle Cabrera antes de llegar al barrio Nueva Rivadavia", "Adjunte foto del reclamo": null, "Usuario_1": "Gabriela Ortubia", "Fecha Solución": "27/05/2026 11:15", "Solución": "Le informamos que su reclamo ha sido derivado al área correspondiente.", "TIPO_S": "Reparacion / Reposicion" }, "geometry": { "type": "Point", "coordinates": [ -68.439921941771004, -33.168620507883602 ] } },
{ "type": "Feature", "properties": { "Nro": 49158, "Fecha": "28/05/2026 09:21", "Tipo": "WEB", "Usuario": "Gabriela Ortubia", "Área": "Reclamos", "Estado": "Proceso - Electrotécnia", "Nombre": "Jose", "Apellido": "Fernandez", "DNI": "14759251", "Fecha Nacimiento": null, "Tel. Móvil": "2634212440", "Tel. Fijo": null, "Correo electrónico": "municipalidadrivadaviareclamos@gmail.com", "Tipo de reclamo": "Luminaria", "Descripción del reclamo": "1 Luminaria", "Domicilio del reclamo": "-33.1822432062998,-68.426489439024", "Y": -33.182243206299802, "X": -68.426489439023996, "Escriba el domicilio del reclamo, barrio y distrito": "Calle Isaac Estrella  entre Galli y Garibaldi", "Adjunte foto del reclamo": null, "Usuario_1": "Gabriela Ortubia", "Fecha Solución": "28/05/2026 09:26", "Solución": "Le informamos que su reclamo ha sido derivado al área correspondiente.", "TIPO_S": "Reparacion / Reposicion" }, "geometry": { "type": "Point", "coordinates": [ -68.426489439023996, -33.182243206299802 ] } },
{ "type": "Feature", "properties": { "Nro": 49201, "Fecha": "28/05/2026 10:54", "Tipo": "WEB", "Usuario": "Daiana Ledesma", "Área": "Reclamos", "Estado": "Proceso - Electrotécnia", "Nombre": "Graciela Noemi", "Apellido": "Aguero", "DNI": "26322256", "Fecha Nacimiento": null, "Tel. Móvil": "2634560568", "Tel. Fijo": null, "Correo electrónico": "municipalidadrivadaviareclamos@gmail.com", "Tipo de reclamo": "Luminaria", "Descripción del reclamo": "la vecina solicita el cambio de 3 luminarias de sodio a led", "Domicilio del reclamo": "-33.1627109928293,-68.45135888101", "Y": -33.162710992829297, "X": -68.451358881009995, "Escriba el domicilio del reclamo, barrio y distrito": "guillermo cano antes de llegar belgrano", "Adjunte foto del reclamo": null, "Usuario_1": "Daiana Ledesma", "Fecha Solución": "28/05/2026 11:02", "Solución": "Le informamos que su reclamo ha sido derivado al área correspondiente.", "TIPO_S": "Reconversion LED" }, "geometry": { "type": "Point", "coordinates": [ -68.451358881009995, -33.162710992829297 ] } },
{ "type": "Feature", "properties": { "Nro": 49708, "Fecha": "02/06/2026 11:38", "Tipo": "WEB", "Usuario": null, "Área": "Reclamos", "Estado": "Proceso - Electrotécnia", "Nombre": "CAMILA", "Apellido": "RAMOS", "DNI": "38907561", "Fecha Nacimiento": "07/08/1994", "Tel. Móvil": "2635010697", "Tel. Fijo": null, "Correo electrónico": "ramosbenja833@gmail.com", "Tipo de reclamo": "Luminaria", "Descripción del reclamo": "Hay 2 luminarias rotas en el pasaje 8. B° San Isidro Sur. Es importante que se arreglen porque hay unas viviendas en obra con un programa del IPV y eso puede favorecer los robos.", "Domicilio del reclamo": "-33.2065558502047,-68.469528164877", "Y": -33.206555850204701, "X": -68.469528164877005, "Escriba el domicilio del reclamo, barrio y distrito": "Pasaje 8, B° San Isidro Sur.", "Adjunte foto del reclamo": null, "Usuario_1": "Gabriela Ortubia", "Fecha Solución": "02/06/2026 12:09", "Solución": "Le informamos que su reclamo ha sido derivado al área correspondiente.", "TIPO_S": "Obra / Extension de Red" }, "geometry": { "type": "Point", "coordinates": [ -68.469528164877005, -33.206555850204701 ] } },
{ "type": "Feature", "properties": { "Nro": 49922, "Fecha": "03/06/2026 13:05", "Tipo": "WEB", "Usuario": "Gabriela Ortubia", "Área": "Reclamos", "Estado": "Proceso - Electrotécnia", "Nombre": "Maria Lourdes", "Apellido": "Cortes", "DNI": "31510231", "Fecha Nacimiento": "17/09/1985", "Tel. Móvil": "2634737942", "Tel. Fijo": null, "Correo electrónico": "municipalidadrivadaviareclamos@gmail.com", "Tipo de reclamo": "Luminaria", "Descripción del reclamo": "Varias Luminarias", "Domicilio del reclamo": "-33.2032612898052,-68.454534616484", "Y": -33.203261289805198, "X": -68.454534616483997, "Escriba el domicilio del reclamo, barrio y distrito": "B° Amanecer manz b  casa 8 ( Atras Costa Canal  calle Urquiza )", "Adjunte foto del reclamo": null, "Usuario_1": "Gabriela Ortubia", "Fecha Solución": "03/06/2026 13:09", "Solución": "Le informamos que su reclamo ha sido derivado al área correspondiente.", "TIPO_S": "Reparacion / Reposicion" }, "geometry": { "type": "Point", "coordinates": [ -68.454534616483997, -33.203261289805198 ] } },
{ "type": "Feature", "properties": { "Nro": 50009, "Fecha": "04/06/2026 09:34", "Tipo": "WEB", "Usuario": "Daiana Ledesma", "Área": "Reclamos", "Estado": "Proceso - Electrotécnia", "Nombre": "DANIEL MARCELO", "Apellido": "OROZCO", "DNI": "20445402", "Fecha Nacimiento": null, "Tel. Móvil": "2634363405", "Tel. Fijo": "0", "Correo electrónico": "municipalidadrivadaviareclamos@gmail.com", "Tipo de reclamo": "Luminaria", "Descripción del reclamo": "4 luminarias sobre mz G", "Domicilio del reclamo": "-33.1660519834119,-68.451230134978", "Y": -33.166051983411897, "X": -68.451230134978005, "Escriba el domicilio del reclamo, barrio y distrito": "B° posta san isidro mz G REVISAR TODA LA MZ", "Adjunte foto del reclamo": null, "Usuario_1": "Daiana Ledesma", "Fecha Solución": "04/06/2026 09:37", "Solución": "Le informamos que su reclamo ha sido derivado al área correspondiente.", "TIPO_S": "Reparacion / Reposicion" }, "geometry": { "type": "Point", "coordinates": [ -68.451230134978005, -33.166051983411897 ] } },
{ "type": "Feature", "properties": { "Nro": 50150, "Fecha": "05/06/2026 09:37", "Tipo": "WEB", "Usuario": "Daiana Ledesma", "Área": "Reclamos", "Estado": "Proceso - Electrotécnia", "Nombre": "Luis Alberto", "Apellido": "Berrios", "DNI": "13716927", "Fecha Nacimiento": null, "Tel. Móvil": "2634409841", "Tel. Fijo": null, "Correo electrónico": "municipalidadrivadaviareclamos@gmail.com", "Tipo de reclamo": "Luminaria", "Descripción del reclamo": "5 luminarias", "Domicilio del reclamo": "-33.1693569240954,-68.453204240813", "Y": -33.169356924095403, "X": -68.453204240812994, "Escriba el domicilio del reclamo, barrio y distrito": "B° posta san isidro mz B casa 16 (revisar)", "Adjunte foto del reclamo": null, "Usuario_1": "Daiana Ledesma", "Fecha Solución": "05/06/2026 09:40", "Solución": "Le informamos que su reclamo ha sido derivado al área correspondiente.", "TIPO_S": "Reparacion / Reposicion" }, "geometry": { "type": "Point", "coordinates": [ -68.453204240812994, -33.169356924095403 ] } },
{ "type": "Feature", "properties": { "Nro": 50200, "Fecha": "05/06/2026 11:42", "Tipo": "WEB", "Usuario": null, "Área": "Reclamos", "Estado": "Proceso - Electrotécnia", "Nombre": "Mariano", "Apellido": "Sarmiento", "DNI": "12537642", "Fecha Nacimiento": "09/01/1959", "Tel. Móvil": "2634271381", "Tel. Fijo": null, "Correo electrónico": "mmoreno2002ar@yahoo.com.ar", "Tipo de reclamo": "Luminaria", "Descripción del reclamo": "Las luces no encienden", "Domicilio del reclamo": "-33.1885734033953,-68.453418817534", "Y": -33.188573403395303, "X": -68.453418817534001, "Escriba el domicilio del reclamo, barrio y distrito": "wwww", "Adjunte foto del reclamo": null, "Usuario_1": "Daiana Ledesma", "Fecha Solución": "05/06/2026 12:17", "Solución": "Le informamos que su reclamo ha sido derivado al área correspondiente.", "TIPO_S": "Reparacion / Reposicion" }, "geometry": { "type": "Point", "coordinates": [ -68.453418817534001, -33.188573403395303 ] } },
{ "type": "Feature", "properties": { "Nro": 50282, "Fecha": "08/06/2026 09:39", "Tipo": "WEB", "Usuario": null, "Área": "Reclamos", "Estado": "Proceso - Electrotécnia", "Nombre": "Ezequiel", "Apellido": "Rosales", "DNI": "25245031", "Fecha Nacimiento": "30/04/1976", "Tel. Móvil": "2634280795", "Tel. Fijo": null, "Correo electrónico": "ezequiel7628@gmail.com", "Tipo de reclamo": "Luminaria", "Descripción del reclamo": "Soy vecino del monoblock B1 del barrio la línea, calle Lavalle y tenemos la farola del pasillo quemada hace mucho, queriendo pedir si se pudiera reemplazar por luminaria led.", "Domicilio del reclamo": "-33.1975425974392,-68.467764480582", "Y": -33.197542597439202, "X": -68.467764480582005, "Escriba el domicilio del reclamo, barrio y distrito": "Calle Lavalle monoblock B1", "Adjunte foto del reclamo": null, "Usuario_1": "Daiana Ledesma", "Fecha Solución": "08/06/2026 09:44", "Solución": "Le informamos que su reclamo ha sido derivado al área correspondiente.", "TIPO_S": "Reconversion LED" }, "geometry": { "type": "Point", "coordinates": [ -68.467764480582005, -33.197542597439202 ] } },
{ "type": "Feature", "properties": { "Nro": 50287, "Fecha": "08/06/2026 09:52", "Tipo": "WEB", "Usuario": "Gabriela Ortubia", "Área": "Reclamos", "Estado": "Proceso - Electrotécnia", "Nombre": "Claudio", "Apellido": "Cabeza", "DNI": "37136376", "Fecha Nacimiento": "27/05/1994", "Tel. Móvil": "2634524761", "Tel. Fijo": null, "Correo electrónico": "claudiocelsocabeza@gmail.com", "Tipo de reclamo": "Luminaria", "Descripción del reclamo": "Donación de Luminaria", "Domicilio del reclamo": "-33.2166542068678,-68.551008310332", "Y": -33.216654206867801, "X": -68.551008310331994, "Escriba el domicilio del reclamo, barrio y distrito": "Calle  Zanjón entre carril Reducción y California", "Adjunte foto del reclamo": null, "Usuario_1": "Gabriela Ortubia", "Fecha Solución": "08/06/2026 09:55", "Solución": "Le informamos que su reclamo ha sido derivado al área correspondiente.", "TIPO_S": "Reparacion / Reposicion" }, "geometry": { "type": "Point", "coordinates": [ -68.551008310331994, -33.216654206867801 ] } },
{ "type": "Feature", "properties": { "Nro": 50329, "Fecha": "08/06/2026 13:27", "Tipo": "WEB", "Usuario": "Gabriela Ortubia", "Área": "Reclamos", "Estado": "Proceso - Electrotécnia", "Nombre": "Hugo Alberto", "Apellido": "Olivella", "DNI": "14759331", "Fecha Nacimiento": null, "Tel. Móvil": "2634397420", "Tel. Fijo": null, "Correo electrónico": "municipalidadrivadaviareclamos@gmail.com", "Tipo de reclamo": "Luminaria", "Descripción del reclamo": "1 Luminaria", "Domicilio del reclamo": "-33.1986109908303,-68.460070695891", "Y": -33.198610990830304, "X": -68.460070695891005, "Escriba el domicilio del reclamo, barrio y distrito": "calle Sargento Cabral lateral este ( Entre Independencia y Constitución )", "Adjunte foto del reclamo": null, "Usuario_1": "Gabriela Ortubia", "Fecha Solución": "08/06/2026 13:32", "Solución": "Le informamos que su reclamo ha sido derivado al área correspondiente.", "TIPO_S": "Reparacion / Reposicion" }, "geometry": { "type": "Point", "coordinates": [ -68.460070695891005, -33.198610990830304 ] } },
{ "type": "Feature", "properties": { "Nro": 50661, "Fecha": "11/06/2026 20:11", "Tipo": "WEB", "Usuario": null, "Área": "Reclamos", "Estado": "Proceso - Electrotécnia", "Nombre": "Pablo Daniel", "Apellido": "Fernández", "DNI": "35876725", "Fecha Nacimiento": "25/04/1991", "Tel. Móvil": "2634528702", "Tel. Fijo": "-", "Correo electrónico": "pablitofer254@gmail.com", "Tipo de reclamo": "Luminaria", "Descripción del reclamo": "Solicito una luminaria para la esquina de Benjamín Matienzo y Carlos W. Lencinas. Realicé este reclamo en abril del 2024 y lo realicé nuevamente el 19 de febrero de 2026. Hasta el momento no se ha colocado la luminaria. Me dijeron en la oficina que ya estaba resuelto y me enviaron el mail de que el reclamo estaba resuelto pero la luminaria aún no está colocada. Quiero destacar que esta esquina es muy oscura y hay un lote baldío con muchos arbustos y ramas, también he solicitado limpieza de ese lote desde hace tiempo y tampoco se ha resuelto ese reclamo.", "Domicilio del reclamo": "-33.1864061480466,-68.46569394709", "Y": -33.186406148046601, "X": -68.465693947090003, "Escriba el domicilio del reclamo, barrio y distrito": "Benjamín Matienzo y Carlos W. Lencinas, esquina suroeste", "Adjunte foto del reclamo": null, "Usuario_1": "Daiana Ledesma", "Fecha Solución": "12/06/2026 07:26", "Solución": "Le informamos que su reclamo ha sido derivado al área correspondiente.", "TIPO_S": "Obra / Extension de Red" }, "geometry": { "type": "Point", "coordinates": [ -68.465693947090003, -33.186406148046601 ] } },
{ "type": "Feature", "properties": { "Nro": 50677, "Fecha": "12/06/2026 09:12", "Tipo": "WEB", "Usuario": null, "Área": "Reclamos", "Estado": "Proceso - Electrotécnia", "Nombre": "Monica", "Apellido": "Cinetti", "DNI": "32076582", "Fecha Nacimiento": "02/05/2026", "Tel. Móvil": "2634886589", "Tel. Fijo": null, "Correo electrónico": "moniicinetti36@gmail.com", "Tipo de reclamo": "Luminaria", "Descripción del reclamo": "Farola de enfrente de mi casa q no prende,ya hice un reclamo vinieron a verla pero sigue sin funcionar", "Domicilio del reclamo": "-33.2662404093084,-68.429107274204", "Y": -33.266240409308402, "X": -68.429107274204, "Escriba el domicilio del reclamo, barrio y distrito": "Calle Roman S/N  al norte los campamentos casa blanca 2 casa mano izquierda finca catena", "Adjunte foto del reclamo": null, "Usuario_1": "Gabriela Ortubia", "Fecha Solución": "12/06/2026 09:25", "Solución": "Le informamos que su reclamo ha sido derivado al área correspondiente.", "TIPO_S": "Reparacion / Reposicion" }, "geometry": { "type": "Point", "coordinates": [ -68.429107274204, -33.266240409308402 ] } },
{ "type": "Feature", "properties": { "Nro": 50685, "Fecha": "12/06/2026 09:30", "Tipo": "WEB", "Usuario": null, "Área": "Reclamos", "Estado": "Proceso - Electrotécnia", "Nombre": "María", "Apellido": "Victoria", "DNI": "34756279", "Fecha Nacimiento": "03/03/1990", "Tel. Móvil": "2634566601", "Tel. Fijo": null, "Correo electrónico": "vickysoto390@gmail.com", "Tipo de reclamo": "Luminaria", "Descripción del reclamo": "Luminarias para la calle Ozan de La Reducción. Sólo hay un poste de luz frente a la Esc y el resto nada. Es una oscuridad total e inseguro para los niños que asisten caminando a la Escuela Genovev Villanueva.  El tramo solicitado seria calle ozan entre ruta 62 y carril viejo reducción.", "Domicilio del reclamo": "-33.2101913928339,-68.590426054014", "Y": -33.210191392833899, "X": -68.590426054014003, "Escriba el domicilio del reclamo, barrio y distrito": "Calle ozan entre ruta 62 y carril viejo reducción", "Adjunte foto del reclamo": null, "Usuario_1": "Carolina Ferreyra", "Fecha Solución": "01/07/2026 11:35", "Solución": "Los funcionarios recorrieron la zona en el Municipio Federal, se informa que el trabajo de luminarias ya se encuentra programado para incorporación de más luminarias. Muchas Gracias", "TIPO_S": "Infraestructura" }, "geometry": { "type": "Point", "coordinates": [ -68.590426054014003, -33.210191392833899 ] } },
{ "type": "Feature", "properties": { "Nro": 50719, "Fecha": "12/06/2026 11:40", "Tipo": "WEB", "Usuario": null, "Área": "Reclamos", "Estado": "Proceso - Electrotécnia", "Nombre": "Oscar Saúl", "Apellido": "Carrizo", "DNI": "23725114", "Fecha Nacimiento": "07/02/1974", "Tel. Móvil": "2634513204", "Tel. Fijo": null, "Correo electrónico": "oscarsaulcarrizo@gmail.com", "Tipo de reclamo": "Luminaria", "Descripción del reclamo": "Soy docente de la escuela Genoveva Villanueva de La Reducción del Medio y por este medio solicito iluminarias, contenedores de desperdicio, servicios para las familias que habitan en calle Ozan de La Reducción del Medio ya que son familias que pertenecen a nuestra escuela Genoveva Villanueva.", "Domicilio del reclamo": "-33.2086355757998,-68.590021897634", "Y": -33.208635575799804, "X": -68.590021897634003, "Escriba el domicilio del reclamo, barrio y distrito": "Calle Ozan. La Reducción del Medio. Rivadavia.", "Adjunte foto del reclamo": null, "Usuario_1": "Carolina Ferreyra", "Fecha Solución": "01/07/2026 11:34", "Solución": "Los funcionarios recorrieron la zona en el Municipio Federal, se informa que el trabajo de luminarias ya se encuentra programado para incorporación de más luminarias. Respecto al contenedor, no hay disponibilidad en el momento, pero se ha solicitado uno para la cercanía de la escuela. Le informaremos cuando se encuentre realizado.", "TIPO_S": "Reparacion / Reposicion" }, "geometry": { "type": "Point", "coordinates": [ -68.590021897634003, -33.208635575799804 ] } },
{ "type": "Feature", "properties": { "Nro": 50835, "Fecha": "16/06/2026 11:36", "Tipo": "WEB", "Usuario": "Daiana Ledesma", "Área": "Reclamos", "Estado": "Proceso - Electrotécnia", "Nombre": "Maria", "Apellido": "Gutierrez", "DNI": "29870614", "Fecha Nacimiento": null, "Tel. Móvil": "2634303177", "Tel. Fijo": null, "Correo electrónico": "municipalidadrivadaviareclamos@gmail.com", "Tipo de reclamo": "Luminaria", "Descripción del reclamo": "el vecino solicita se cambie de sodio a LED", "Domicilio del reclamo": "-33.2002089978691,-68.482772912993", "Y": -33.200208997869098, "X": -68.482772912992999, "Escriba el domicilio del reclamo, barrio y distrito": "entre colon y el canal grande calle chañar", "Adjunte foto del reclamo": null, "Usuario_1": "Daiana Ledesma", "Fecha Solución": "16/06/2026 11:39", "Solución": "Le informamos que su reclamo ha sido derivado al área correspondiente.", "TIPO_S": "Reconversion LED" }, "geometry": { "type": "Point", "coordinates": [ -68.482772912992999, -33.200208997869098 ] } },
{ "type": "Feature", "properties": { "Nro": 50903, "Fecha": "17/06/2026 09:58", "Tipo": "WEB", "Usuario": "Gabriela Ortubia", "Área": "Reclamos", "Estado": "Proceso - Electrotécnia", "Nombre": "Jorge", "Apellido": "Fernández", "DNI": "13888031", "Fecha Nacimiento": null, "Tel. Móvil": "3544538034", "Tel. Fijo": null, "Correo electrónico": "municipalidadrivadaviareclamos@gmail.com", "Tipo de reclamo": "Luminaria", "Descripción del reclamo": "1 Luminaria", "Domicilio del reclamo": "-33.2008508857445,-68.471711483015", "Y": -33.200850885744501, "X": -68.471711483015, "Escriba el domicilio del reclamo, barrio y distrito": "Calle Liniers donde desemboca calle Sabatini", "Adjunte foto del reclamo": null, "Usuario_1": "Gabriela Ortubia", "Fecha Solución": "17/06/2026 10:04", "Solución": "Le informamos que su reclamo ha sido derivado al área correspondiente.", "TIPO_S": "Reparacion / Reposicion" }, "geometry": { "type": "Point", "coordinates": [ -68.471711483015, -33.200850885744501 ] } },
{ "type": "Feature", "properties": { "Nro": 50980, "Fecha": "18/06/2026 11:07", "Tipo": "WEB", "Usuario": "Gabriela Ortubia", "Área": "Reclamos", "Estado": "Proceso - Electrotécnia", "Nombre": "EMANUEL ALEXANDER", "Apellido": "FRANCO", "DNI": "38208705", "Fecha Nacimiento": "15/06/1964", "Tel. Móvil": "2634640584", "Tel. Fijo": "NO", "Correo electrónico": "emanuelexequielalexanderfranco@gmail.com", "Tipo de reclamo": "Luminaria", "Descripción del reclamo": "1Luminaria", "Domicilio del reclamo": "-33.2055953236017,-68.470327463164", "Y": -33.205595323601699, "X": -68.470327463163997, "Escriba el domicilio del reclamo, barrio y distrito": "B° San isidro sur pasaje 2 y 6 frente a la casa de Montiel", "Adjunte foto del reclamo": null, "Usuario_1": "Gabriela Ortubia", "Fecha Solución": "18/06/2026 11:11", "Solución": "Le informamos que su reclamo ha sido derivado al área correspondiente.", "TIPO_S": "Reparacion / Reposicion" }, "geometry": { "type": "Point", "coordinates": [ -68.470327463163997, -33.205595323601699 ] } },
{ "type": "Feature", "properties": { "Nro": 51349, "Fecha": "24/06/2026 11:50", "Tipo": "WEB", "Usuario": "Daiana Ledesma", "Área": "Reclamos", "Estado": "Proceso - Electrotécnia", "Nombre": "Cristian", "Apellido": "Devito", "DNI": "22585079", "Fecha Nacimiento": null, "Tel. Móvil": "2634595580", "Tel. Fijo": null, "Correo electrónico": "municipalidadrivadaviareclamos@gmail.com", "Tipo de reclamo": "Luminaria", "Descripción del reclamo": "1  luminaria", "Domicilio del reclamo": "-33.1821085162858,-68.522555437102", "Y": -33.182108516285801, "X": -68.522555437102, "Escriba el domicilio del reclamo, barrio y distrito": "calle godoy s/n finca sebastian felici (andrade)", "Adjunte foto del reclamo": null, "Usuario_1": "Daiana Ledesma", "Fecha Solución": "24/06/2026 11:53", "Solución": "Le informamos que su reclamo ha sido derivado al área correspondiente.", "TIPO_S": "Reparacion / Reposicion" }, "geometry": { "type": "Point", "coordinates": [ -68.522555437102, -33.182108516285801 ] } },
{ "type": "Feature", "properties": { "Nro": 51353, "Fecha": "24/06/2026 12:26", "Tipo": "WEB", "Usuario": "Daiana Ledesma", "Área": "Reclamos", "Estado": "Proceso - Electrotécnia", "Nombre": "Melisa", "Apellido": "Pérez", "DNI": "37515590", "Fecha Nacimiento": null, "Tel. Móvil": "2634808930", "Tel. Fijo": null, "Correo electrónico": "anperez0293@gmail.com", "Tipo de reclamo": "Luminaria", "Descripción del reclamo": "luminaria que prende y apaga", "Domicilio del reclamo": "-33.1962249631005,-68.422621272803", "Y": -33.196224963100498, "X": -68.422621272802999, "Escriba el domicilio del reclamo, barrio y distrito": "vicente gil a 500 mtrs antes de llegar avellaneda", "Adjunte foto del reclamo": null, "Usuario_1": "Daiana Ledesma", "Fecha Solución": "24/06/2026 12:34", "Solución": "Le informamos que su reclamo ha sido derivado al área correspondiente.", "TIPO_S": "Mantenimiento Operativo" }, "geometry": { "type": "Point", "coordinates": [ -68.422621272802999, -33.196224963100498 ] } },
{ "type": "Feature", "properties": { "Nro": 51381, "Fecha": "25/06/2026 07:29", "Tipo": "WEB", "Usuario": null, "Área": "Reclamos", "Estado": "Proceso - Electrotécnia", "Nombre": "maria laura", "Apellido": "gerlo", "DNI": "29671364", "Fecha Nacimiento": null, "Tel. Móvil": "2634547854", "Tel. Fijo": null, "Correo electrónico": "marialauragerlo@gmail.com", "Tipo de reclamo": "Luminaria", "Descripción del reclamo": "SE PRENDE Y APAGA", "Domicilio del reclamo": "-33.2158149656225,-68.501932602538", "Y": -33.215814965622499, "X": -68.501932602538005, "Escriba el domicilio del reclamo, barrio y distrito": "SEGUNDO LOMO DE BURRO EN LA LIBERTAD,ESTA EL CONTENEDOR", "Adjunte foto del reclamo": null, "Usuario_1": "Gabriela Ortubia", "Fecha Solución": "25/06/2026 08:14", "Solución": "Le informamos que su reclamo ha sido derivado al área correspondiente.", "TIPO_S": "Mantenimiento Operativo" }, "geometry": { "type": "Point", "coordinates": [ -68.501932602538005, -33.215814965622499 ] } },
{ "type": "Feature", "properties": { "Nro": 51421, "Fecha": "25/06/2026 11:09", "Tipo": "WEB", "Usuario": null, "Área": "Reclamos", "Estado": "Proceso - Electrotécnia", "Nombre": "Maxi", "Apellido": "Ponce", "DNI": "33821359", "Fecha Nacimiento": "30/08/1988", "Tel. Móvil": "2634591319", "Tel. Fijo": "-", "Correo electrónico": "maxiponce3008@gmail.com", "Tipo de reclamo": "Luminaria", "Descripción del reclamo": "Buen día un gusto saludarte.! me comunico con ustedes con el fin de solicitarles la reparación del alumbrado público frente a mi domicilio ubicado sobre calle Vicente Gil antes de Avellaneda Santa María de Oro..hacen varios días que no prende y es un peligro para la delincuencia también.. les agradezco su atención.. saludos", "Domicilio del reclamo": "-33.1979195644252,-68.423799468891", "Y": -33.197919564425199, "X": -68.423799468891005, "Escriba el domicilio del reclamo, barrio y distrito": "Calle Vicente Gil antes de Avellaneda", "Adjunte foto del reclamo": null, "Usuario_1": "Daiana Ledesma", "Fecha Solución": "25/06/2026 11:50", "Solución": "Le informamos que su reclamo ha sido derivado al área correspondiente.", "TIPO_S": "Reparacion / Reposicion" }, "geometry": { "type": "Point", "coordinates": [ -68.423799468891005, -33.197919564425199 ] } },
{ "type": "Feature", "properties": { "Nro": 51486, "Fecha": "26/06/2026 11:04", "Tipo": "WEB", "Usuario": "Daiana Ledesma", "Área": "Reclamos", "Estado": "Proceso - Electrotécnia", "Nombre": "JULIA MARGARITA", "Apellido": "LUCERO", "DNI": "11728681", "Fecha Nacimiento": null, "Tel. Móvil": "2634325746", "Tel. Fijo": "0", "Correo electrónico": "municipalidadrivadaviareclamos@gmail.com", "Tipo de reclamo": "Luminaria", "Descripción del reclamo": "2 luminaria una que prende y apaga y otra quemada", "Domicilio del reclamo": "-33.2228293387678,-68.56122216226", "Y": -33.222829338767802, "X": -68.561222162259995, "Escriba el domicilio del reclamo, barrio y distrito": "calle lucero reducción de abajo mano izquierda no entrando al club", "Adjunte foto del reclamo": null, "Usuario_1": "Daiana Ledesma", "Fecha Solución": "26/06/2026 11:07", "Solución": "Le informamos que su reclamo ha sido derivado al área correspondiente.", "TIPO_S": "Mantenimiento Operativo" }, "geometry": { "type": "Point", "coordinates": [ -68.561222162259995, -33.222829338767802 ] } },
{ "type": "Feature", "properties": { "Nro": 51503, "Fecha": "26/06/2026 13:21", "Tipo": "WEB", "Usuario": null, "Área": "Reclamos", "Estado": "Proceso - Electrotécnia", "Nombre": "Oscar Pedro", "Apellido": "Tonón", "DNI": "17.298.684", "Fecha Nacimiento": "17/07/1965", "Tel. Móvil": "2634672707", "Tel. Fijo": null, "Correo electrónico": "oscartonon9@gmail.com", "Tipo de reclamo": "Luminaria", "Descripción del reclamo": "Luminaria quemada o no enciende", "Domicilio del reclamo": "-33.2190507781611,-68.524806389668", "Y": -33.219050778161098, "X": -68.524806389668001, "Escriba el domicilio del reclamo, barrio y distrito": "Calle California y Honorato", "Adjunte foto del reclamo": null, "Usuario_1": "Gabriela Ortubia", "Fecha Solución": "29/06/2026 07:19", "Solución": "Le informamos que su reclamo ha sido derivado al área correspondiente.", "TIPO_S": "Reparacion / Reposicion" }, "geometry": { "type": "Point", "coordinates": [ -68.524806389668001, -33.219050778161098 ] } },
{ "type": "Feature", "properties": { "Nro": 51504, "Fecha": "26/06/2026 13:24", "Tipo": "WEB", "Usuario": null, "Área": "Reclamos", "Estado": "Proceso - Electrotécnia", "Nombre": "Elian", "Apellido": "Ponti", "DNI": "33321217", "Fecha Nacimiento": "22/12/1987", "Tel. Móvil": "2634849771", "Tel. Fijo": null, "Correo electrónico": "elianponti@gmail.com", "Tipo de reclamo": "Luminaria", "Descripción del reclamo": "Cambio de la misma hace 6 meses q se quemo", "Domicilio del reclamo": "-33.1862440399384,-68.484489528972", "Y": -33.186244039938401, "X": -68.484489528972006, "Escriba el domicilio del reclamo, barrio y distrito": "Prolongación callejón Bernasconi", "Adjunte foto del reclamo": null, "Usuario_1": "Gabriela Ortubia", "Fecha Solución": "29/06/2026 07:19", "Solución": "Le informamos que su reclamo ha sido derivado al área correspondiente.", "TIPO_S": "Reparacion / Reposicion" }, "geometry": { "type": "Point", "coordinates": [ -68.484489528972006, -33.186244039938401 ] } },
{ "type": "Feature", "properties": { "Nro": 51684, "Fecha": "30/06/2026 10:51", "Tipo": "WEB", "Usuario": "Gabriela Ortubia", "Área": "Reclamos", "Estado": "Proceso - Electrotécnia", "Nombre": "Juan Carlos", "Apellido": "Videla", "DNI": "12128834", "Fecha Nacimiento": null, "Tel. Móvil": "2634305002", "Tel. Fijo": null, "Correo electrónico": "municipalidadrivadaviareclamos@gmail.com", "Tipo de reclamo": "Luminaria", "Descripción del reclamo": "primer luminaria esta el canasto suelto y el segundo hace falso contacto", "Domicilio del reclamo": "-33.2073906918682,-68.439085092558", "Y": -33.207390691868198, "X": -68.439085092558003, "Escriba el domicilio del reclamo, barrio y distrito": "Calle Puebla  al sur ( Santa Maria de Oro )", "Adjunte foto del reclamo": null, "Usuario_1": "Gabriela Ortubia", "Fecha Solución": "30/06/2026 11:54", "Solución": "Le informamos que su reclamo ha sido derivado al área correspondiente", "TIPO_S": "Mantenimiento Operativo" }, "geometry": { "type": "Point", "coordinates": [ -68.439085092558003, -33.207390691868198 ] } },
{ "type": "Feature", "properties": { "Nro": 51703, "Fecha": "30/06/2026 13:27", "Tipo": "WEB", "Usuario": "Gabriela Ortubia", "Área": "Reclamos", "Estado": "Proceso - Electrotécnia", "Nombre": "NICOLAS", "Apellido": "LEDESMA", "DNI": "32855468", "Fecha Nacimiento": null, "Tel. Móvil": "2634878763", "Tel. Fijo": null, "Correo electrónico": "municipalidadrivadaviareclamos@gmail.com", "Tipo de reclamo": "Luminaria", "Descripción del reclamo": "Varias Luminarias", "Domicilio del reclamo": "-33.1859156742224,-68.449985589995", "Y": -33.1859156742224, "X": -68.449985589994995, "Escriba el domicilio del reclamo, barrio y distrito": "B° Amanecer manz A casa 19", "Adjunte foto del reclamo": null, "Usuario_1": "Gabriela Ortubia", "Fecha Solución": "30/06/2026 13:30", "Solución": "Le informamos que su reclamo ha sido derivado al área correspondiente.", "TIPO_S": "Reparacion / Reposicion" }, "geometry": { "type": "Point", "coordinates": [ -68.449985589994995, -33.1859156742224 ] } },
{ "type": "Feature", "properties": { "Nro": 51707, "Fecha": "30/06/2026 14:55", "Tipo": "WEB", "Usuario": null, "Área": "Reclamos", "Estado": "Proceso - Electrotécnia", "Nombre": "Valentina", "Apellido": "Mansilla Runno", "DNI": "38336164", "Fecha Nacimiento": "19/11/1994", "Tel. Móvil": "2634396813", "Tel. Fijo": "2634442714", "Correo electrónico": "mansillarunnovalentina@gmail.com", "Tipo de reclamo": "Luminaria", "Descripción del reclamo": "Quiero elevar un Reclamo respecto a la luminaria intersecciones de calle Félix joven cuatro, 39 entre mini y Mariano Moreno prolongación hacia la Facultad y hacia la escuela normal por calle Balcarce y prolongación de Félix Gomez, ya que las mismas están encendidas pero con pocos LED y no han sido cambiado los focos desde los reclamos desde enero del corriente año más precisamente 14/1 y 15/1 en los cuales fui contestada por el jefe de área de Que, se había ido a observar y nunca vinieron a observar las nominales, en lo cual fui presencialmente hasta la oficina en calle San Isidro, y me contestaron que tenían que comprar nuevos focos y todavía seguimos esperando. Gracias", "Domicilio del reclamo": "-33.1937421307295,-68.474668614984", "Y": -33.193742130729497, "X": -68.474668614983997, "Escriba el domicilio del reclamo, barrio y distrito": "Felix Yoben 439 entre Ameghino y Mariano Moreno", "Adjunte foto del reclamo": null, "Usuario_1": "Gabriela Ortubia", "Fecha Solución": "01/07/2026 07:06", "Solución": "Le informamos que su reclamo ha sido derivado al área correspondiente.", "TIPO_S": "Mantenimiento Operativo" }, "geometry": { "type": "Point", "coordinates": [ -68.474668614983997, -33.193742130729497 ] } },
{ "type": "Feature", "properties": { "Nro": 51721, "Fecha": "30/06/2026 19:52", "Tipo": "WEB", "Usuario": null, "Área": "Reclamos", "Estado": "Proceso - Electrotécnia", "Nombre": "Pedro Jesus", "Apellido": "Alaniz", "DNI": "8157520", "Fecha Nacimiento": null, "Tel. Móvil": "2612197685", "Tel. Fijo": null, "Correo electrónico": "cmarianel79@gmail.com", "Tipo de reclamo": "Luminaria", "Descripción del reclamo": "Luminaria quemada no anda.", "Domicilio del reclamo": "-33.2717437682489,-68.413679208769", "Y": -33.271743768248903, "X": -68.413679208768997, "Escriba el domicilio del reclamo, barrio y distrito": "Barrio Los Campamentos MC Casa 2", "Adjunte foto del reclamo": null, "Usuario_1": "Gabriela Ortubia", "Fecha Solución": "01/07/2026 07:06", "Solución": "Le informamos que su reclamo ha sido derivado al área correspondiente.", "TIPO_S": "Reparacion / Reposicion" }, "geometry": { "type": "Point", "coordinates": [ -68.413679208768997, -33.271743768248903 ] } },
{ "type": "Feature", "properties": { "Nro": 51723, "Fecha": "30/06/2026 19:54", "Tipo": "WEB", "Usuario": null, "Área": "Reclamos", "Estado": "Proceso - Electrotécnia", "Nombre": "Gonzalo", "Apellido": "Martin", "DNI": "36618234", "Fecha Nacimiento": null, "Tel. Móvil": "2634352898", "Tel. Fijo": null, "Correo electrónico": "gonzalomartin93@hotmail.com", "Tipo de reclamo": "Luminaria", "Descripción del reclamo": "Se necesita revisar la luminaria de la plaza de mi barrio, Barrio Marcial Pérez. Solo anda una luminaria y el reflector. Está muy oscura y se juntan personas a drogarse, vender estupefacientes en la noche. Dejo una foto de como se ve en la noche la plaza.", "Domicilio del reclamo": "-33.1935205155747,-68.472360577597", "Y": -33.193520515574697, "X": -68.472360577597001, "Escriba el domicilio del reclamo, barrio y distrito": "Comeglio y Mariano Moreno", "Adjunte foto del reclamo": null, "Usuario_1": "Carolina Ferreyra", "Fecha Solución": "01/07/2026 08:39", "Solución": "Se encuentra planificado el recambio de todas las luminarias de la plaza, para el funcionamiento de las luminarias esféricas., o en su defecto las nuevas de reemplazo, hay que realizar el circuito eléctrico general de la plaza que presenta fallas, por ese motivo se encuentran apagadas. Actualmente ya se ha realizado el pedido de materiales para la obra y una vez que el personal culmine el reemplazo de luminarias en el Bª Juventud (Cementerio) comenzará las reparaciones en la Plaza Marcial Pérez. Le informaremos cuando las tareas se inicien. Muchas Gracias.", "TIPO_S": "Reparacion / Reposicion" }, "geometry": { "type": "Point", "coordinates": [ -68.472360577597001, -33.193520515574697 ] } },
{ "type": "Feature", "properties": { "Nro": 51994, "Fecha": "03/07/2026 13:27", "Tipo": "WEB", "Usuario": "Daiana Ledesma", "Área": "Reclamos", "Estado": "Proceso - Electrotécnia", "Nombre": "Gabriel", "Apellido": "Ceferino", "DNI": "26831728", "Fecha Nacimiento": null, "Tel. Móvil": "2634413297", "Tel. Fijo": null, "Correo electrónico": "municipalidadrivadaviareclamos@gmail.com", "Tipo de reclamo": "Luminaria", "Descripción del reclamo": "luminaria rota sobre calle liniers en la entrada de la finca  oscuridad por completo", "Domicilio del reclamo": "-33.1981261964122,-68.420545663847", "Y": -33.198126196412197, "X": -68.420545663846994, "Escriba el domicilio del reclamo, barrio y distrito": "liniers norte s/n (santa maria de oro)", "Adjunte foto del reclamo": null, "Usuario_1": "Daiana Ledesma", "Fecha Solución": "03/07/2026 13:30", "Solución": "Le informamos que su reclamo ha sido derivado al área correspondiente.", "TIPO_S": "Reparacion / Reposicion" }, "geometry": { "type": "Point", "coordinates": [ -68.420545663846994, -33.198126196412197 ] } },
{ "type": "Feature", "properties": { "Nro": 51995, "Fecha": "03/07/2026 13:30", "Tipo": "WEB", "Usuario": "Daiana Ledesma", "Área": "Reclamos", "Estado": "Proceso - Electrotécnia", "Nombre": "Claudio", "Apellido": "Cabeza", "DNI": "37136376", "Fecha Nacimiento": "27/05/1994", "Tel. Móvil": "2634524761", "Tel. Fijo": null, "Correo electrónico": "claudiocelsocabeza@gmail.com", "Tipo de reclamo": "Luminaria", "Descripción del reclamo": "luminaria quemada en calle zanjón entre carril reducción y california", "Domicilio del reclamo": "-33.2279450336059,-68.544774856581", "Y": -33.227945033605899, "X": -68.544774856581, "Escriba el domicilio del reclamo, barrio y distrito": "frente a la casa de la familia ricardo gernandez y valeria cuello", "Adjunte foto del reclamo": null, "Usuario_1": "Daiana Ledesma", "Fecha Solución": "03/07/2026 13:34", "Solución": "Le informamos que su reclamo ha sido derivado al área correspondiente.", "TIPO_S": "Reparacion / Reposicion" }, "geometry": { "type": "Point", "coordinates": [ -68.544774856581, -33.227945033605899 ] } },
{ "type": "Feature", "properties": { "Nro": 52138, "Fecha": "07/07/2026 11:53", "Tipo": "WEB", "Usuario": "Gabriela Ortubia", "Área": "Reclamos", "Estado": "Proceso - Electrotécnia", "Nombre": "Cesar", "Apellido": "Aguirre", "DNI": "14349129", "Fecha Nacimiento": null, "Tel. Móvil": "sin datos", "Tel. Fijo": null, "Correo electrónico": "municipalidadrivadaviareclamos@gmail.com", "Tipo de reclamo": "Luminaria", "Descripción del reclamo": "1 Luminaria quemada", "Domicilio del reclamo": "-33.178462827927,-68.449856843962", "Y": -33.178462827927, "X": -68.449856843961996, "Escriba el domicilio del reclamo, barrio y distrito": "Calle Lamadrid y Isaac Estrella", "Adjunte foto del reclamo": null, "Usuario_1": "Gabriela Ortubia", "Fecha Solución": "07/07/2026 11:55", "Solución": "Le informamos que su reclamo ha sido derivado al área correspondiente.", "TIPO_S": "Reparacion / Reposicion" }, "geometry": { "type": "Point", "coordinates": [ -68.449856843961996, -33.178462827927 ] } },
{ "type": "Feature", "properties": { "Nro": 52153, "Fecha": "07/07/2026 20:18", "Tipo": "WEB", "Usuario": null, "Área": "Reclamos", "Estado": "Proceso - Electrotécnia", "Nombre": "Cristian", "Apellido": "Salguero", "DNI": "25019063", "Fecha Nacimiento": null, "Tel. Móvil": "2634579071", "Tel. Fijo": null, "Correo electrónico": "lautarosalguero66@gmail.com", "Tipo de reclamo": "Luminaria", "Descripción del reclamo": "En calle honorato sin número del distrito de libertad están rotas y no encienden son tres las luminarias afectadas y por favor que sea urgente por la inseguridad", "Domicilio del reclamo": "-33.2092865504827,-68.521783907962", "Y": -33.209286550482702, "X": -68.521783907962003, "Escriba el domicilio del reclamo, barrio y distrito": "Calle honorato s/n la libertad", "Adjunte foto del reclamo": null, "Usuario_1": "Daiana Ledesma", "Fecha Solución": "08/07/2026 07:00", "Solución": "Le informamos que su reclamo ha sido derivado al área correspondiente.", "TIPO_S": "Reparacion / Reposicion" }, "geometry": { "type": "Point", "coordinates": [ -68.521783907962003, -33.209286550482702 ] } },
{ "type": "Feature", "properties": { "Nro": 52163, "Fecha": "08/07/2026 07:03", "Tipo": "WEB", "Usuario": "Gabriela Ortubia", "Área": "Reclamos", "Estado": "Proceso - Electrotécnia", "Nombre": "Maria Cristina", "Apellido": "Lujan", "DNI": "12128771", "Fecha Nacimiento": null, "Tel. Móvil": "2634405808", "Tel. Fijo": null, "Correo electrónico": "municipalidadrivadaviareclamos@gmail.com", "Tipo de reclamo": "Luminaria", "Descripción del reclamo": "1 Luminaria", "Domicilio del reclamo": "-33.2131490870992,-68.508098330511", "Y": -33.213149087099197, "X": -68.508098330511004, "Escriba el domicilio del reclamo, barrio y distrito": "B° Catena , calle Ferreyra y la intersección calle Libertad ( Libertad )", "Adjunte foto del reclamo": null, "Usuario_1": "Gabriela Ortubia", "Fecha Solución": "08/07/2026 07:15", "Solución": "Le informamos que su reclamo ha sido derivado al área correspondiente.", "TIPO_S": "Reparacion / Reposicion" }, "geometry": { "type": "Point", "coordinates": [ -68.508098330511004, -33.213149087099197 ] } },
{ "type": "Feature", "properties": { "Nro": 52167, "Fecha": "08/07/2026 07:28", "Tipo": "WEB", "Usuario": "Daiana Ledesma", "Área": "Reclamos", "Estado": "Proceso - Electrotécnia", "Nombre": "PABLA ERMELINA", "Apellido": "FUNEZ", "DNI": "10980780", "Fecha Nacimiento": "28/04/1953", "Tel. Móvil": "2634635835", "Tel. Fijo": null, "Correo electrónico": "funezpaola@gmail.com", "Tipo de reclamo": "Luminaria", "Descripción del reclamo": "tres luminarias quemadas", "Domicilio del reclamo": "-33.2087192406783,-68.617655839934", "Y": -33.208719240678299, "X": -68.617655839934002, "Escriba el domicilio del reclamo, barrio y distrito": "ruta 62 s/n entre calle cano y cuello (reducción de arriba)", "Adjunte foto del reclamo": null, "Usuario_1": "Daiana Ledesma", "Fecha Solución": "08/07/2026 07:31", "Solución": "Le informamos que su reclamo ha sido derivado al área correspondiente.", "TIPO_S": "Reparacion / Reposicion" }, "geometry": { "type": "Point", "coordinates": [ -68.617655839934002, -33.208719240678299 ] } },
{ "type": "Feature", "properties": { "Nro": 52206, "Fecha": "08/07/2026 11:43", "Tipo": "WEB", "Usuario": null, "Área": "Reclamos", "Estado": "Proceso - Electrotécnia", "Nombre": "Analia", "Apellido": "Bastias", "DNI": "24697473", "Fecha Nacimiento": "24/07/1975", "Tel. Móvil": "2634510005", "Tel. Fijo": null, "Correo electrónico": "analialbastias@yahoo.es", "Tipo de reclamo": "Luminaria", "Descripción del reclamo": "Se han quemado varias luminarias del barrio Prado Verde", "Domicilio del reclamo": "-33.1764916290164,-68.476776317092", "Y": -33.176491629016397, "X": -68.476776317092003, "Escriba el domicilio del reclamo, barrio y distrito": "Barrio Prado Verde manzana E casa 2", "Adjunte foto del reclamo": null, "Usuario_1": "Gabriela Ortubia", "Fecha Solución": "08/07/2026 12:05", "Solución": "Le informamos que su reclamo ha sido derivado al área correspondiente.", "TIPO_S": "Reparacion / Reposicion" }, "geometry": { "type": "Point", "coordinates": [ -68.476776317092003, -33.176491629016397 ] } },
{ "type": "Feature", "properties": { "Nro": 52210, "Fecha": "08/07/2026 12:06", "Tipo": "WEB", "Usuario": "Gabriela Ortubia", "Área": "Reclamos", "Estado": "Proceso - Electrotécnia", "Nombre": "Elvira Gabriela", "Apellido": "Ortubia", "DNI": "22144997", "Fecha Nacimiento": "02/05/1971", "Tel. Móvil": "2634686798", "Tel. Fijo": null, "Correo electrónico": "gabrielaortubia186@gmail.com", "Tipo de reclamo": "Luminaria", "Descripción del reclamo": "colocación de cable del Mástil", "Domicilio del reclamo": "-33.1901715936,-68.45135888101", "Y": -33.190171593599999, "X": -68.451358881009995, "Escriba el domicilio del reclamo, barrio y distrito": "Calle Echeverria y los Maitenes", "Adjunte foto del reclamo": null, "Usuario_1": "Gabriela Ortubia", "Fecha Solución": "08/07/2026 12:10", "Solución": "Le informamos que su reclamo ha sido derivado al área correspondiente.", "TIPO_S": "Infraestructura" }, "geometry": { "type": "Point", "coordinates": [ -68.451358881009995, -33.190171593599999 ] } },
{ "type": "Feature", "properties": { "Nro": 52215, "Fecha": "08/07/2026 13:20", "Tipo": "WEB", "Usuario": "Daiana Ledesma", "Área": "Reclamos", "Estado": "Proceso - Electrotécnia", "Nombre": "Rubén Darío", "Apellido": "Fiochetti", "DNI": "16362507", "Fecha Nacimiento": null, "Tel. Móvil": "2634809182", "Tel. Fijo": null, "Correo electrónico": "municipalidadrivadaviareclamos@gmail.com", "Tipo de reclamo": "Luminaria", "Descripción del reclamo": "hay dos focos del alumbrado público q están prendido las 24 horas. También se necesita la colocación en tres postes más la farola debido a q queda la calle con poco iluminación y estamos propenso a los robos. Gracias", "Domicilio del reclamo": "-33.2278911857448,-68.54461392404", "Y": -33.227891185744802, "X": -68.544613924039993, "Escriba el domicilio del reclamo, barrio y distrito": "calle chile (reducción)", "Adjunte foto del reclamo": null, "Usuario_1": "Daiana Ledesma", "Fecha Solución": "08/07/2026 13:27", "Solución": "Le informamos que su reclamo ha sido derivado al área correspondiente.", "TIPO_S": "Mantenimiento Operativo" }, "geometry": { "type": "Point", "coordinates": [ -68.544613924039993, -33.227891185744802 ] } },
{ "type": "Feature", "properties": { "Nro": 52216, "Fecha": "08/07/2026 13:30", "Tipo": "WEB", "Usuario": "Gabriela Ortubia", "Área": "Reclamos", "Estado": "Proceso - Electrotécnia", "Nombre": "Maria Delia", "Apellido": "Toledo", "DNI": "5901142", "Fecha Nacimiento": null, "Tel. Móvil": "2634537811", "Tel. Fijo": null, "Correo electrónico": "municipalidadrivadaviareclamos@gmail.com", "Tipo de reclamo": "Luminaria", "Descripción del reclamo": "1 Luminaria", "Domicilio del reclamo": "-33.2169952865708,-68.499102201475", "Y": -33.2169952865708, "X": -68.499102201474997, "Escriba el domicilio del reclamo, barrio y distrito": "B° Libertad  Frente a la segunda calle", "Adjunte foto del reclamo": null, "Usuario_1": "Gabriela Ortubia", "Fecha Solución": "08/07/2026 13:38", "Solución": "Le informamos que su reclamo ha sido derivado al área correspondiente", "TIPO_S": "Reparacion / Reposicion" }, "geometry": { "type": "Point", "coordinates": [ -68.499102201474997, -33.2169952865708 ] } },
{ "type": "Feature", "properties": { "Nro": 52341, "Fecha": "13/07/2026 10:43", "Tipo": "WEB", "Usuario": "Gabriela Ortubia", "Área": "Reclamos", "Estado": "Proceso - Electrotécnia", "Nombre": "Edgardo Ismael", "Apellido": "Gres", "DNI": "23173446", "Fecha Nacimiento": null, "Tel. Móvil": "2634959296", "Tel. Fijo": null, "Correo electrónico": "municipalidadrivadaviareclamos@gmail.com", "Tipo de reclamo": "Luminaria", "Descripción del reclamo": "1 Luminaria", "Domicilio del reclamo": "-33.1917338412331,-68.4372826481", "Y": -33.191733841233102, "X": -68.437282648099995, "Escriba el domicilio del reclamo, barrio y distrito": "Calle Avellaneda pasando San Lorenzo a 100 metros mano izquierda", "Adjunte foto del reclamo": null, "Usuario_1": "Gabriela Ortubia", "Fecha Solución": "13/07/2026 10:46", "Solución": "Le informamos que su reclamo ha sido derivado al área correspondiente.", "TIPO_S": "Reparacion / Reposicion" }, "geometry": { "type": "Point", "coordinates": [ -68.437282648099995, -33.191733841233102 ] } },
{ "type": "Feature", "properties": { "Nro": 52355, "Fecha": "13/07/2026 11:42", "Tipo": "WEB", "Usuario": "Daiana Ledesma", "Área": "Reclamos", "Estado": "Proceso - Electrotécnia", "Nombre": "Gisela", "Apellido": "Acevedo", "DNI": "37780689", "Fecha Nacimiento": null, "Tel. Móvil": "2634697525", "Tel. Fijo": null, "Correo electrónico": "giacevedito@gmail.com", "Tipo de reclamo": "Luminaria", "Descripción del reclamo": "2 luminaria", "Domicilio del reclamo": "-33.203692193036,-68.442904558195", "Y": -33.203692193035998, "X": -68.442904558194996, "Escriba el domicilio del reclamo, barrio y distrito": "B° costa canal mz B casa 19 sobre calle Urquiza", "Adjunte foto del reclamo": null, "Usuario_1": "Daiana Ledesma", "Fecha Solución": "13/07/2026 11:45", "Solución": "Le informamos que su reclamo ha sido derivado al área correspondiente.", "TIPO_S": "Reparacion / Reposicion" }, "geometry": { "type": "Point", "coordinates": [ -68.442904558194996, -33.203692193035998 ] } },
{ "type": "Feature", "properties": { "Nro": 52405, "Fecha": "14/07/2026 10:07", "Tipo": "WEB", "Usuario": "Daiana Ledesma", "Área": "Reclamos", "Estado": "Proceso - Electrotécnia", "Nombre": "MIRIAN", "Apellido": "MUÑOZ", "DNI": "38579227", "Fecha Nacimiento": null, "Tel. Móvil": "2634717418", "Tel. Fijo": "0", "Correo electrónico": "miriammunoz477@gmail.com", "Tipo de reclamo": "Luminaria", "Descripción del reclamo": "1 luminaria", "Domicilio del reclamo": "-33.2036203759781,-68.44264706613", "Y": -33.203620375978097, "X": -68.442647066129993, "Escriba el domicilio del reclamo, barrio y distrito": "B° costa canal mz B casa 20", "Adjunte foto del reclamo": null, "Usuario_1": "Daiana Ledesma", "Fecha Solución": "14/07/2026 10:09", "Solución": "Le informamos que su reclamo ha sido derivado al área correspondiente.", "TIPO_S": "Reparacion / Reposicion" }, "geometry": { "type": "Point", "coordinates": [ -68.442647066129993, -33.203620375978097 ] } },
{ "type": "Feature", "properties": { "Nro": 52441, "Fecha": "14/07/2026 12:43", "Tipo": "WEB", "Usuario": "Gabriela Ortubia", "Área": "Reclamos", "Estado": "Proceso - Electrotécnia", "Nombre": "Jose Guillermo", "Apellido": "Ruiz", "DNI": "16120132", "Fecha Nacimiento": null, "Tel. Móvil": "2634573007", "Tel. Fijo": null, "Correo electrónico": "municipalidadrivadaviareclamos@gmail.com", "Tipo de reclamo": "Luminaria", "Descripción del reclamo": "2 Luminarias quemadas", "Domicilio del reclamo": "-33.2023276588625,-68.460564222349", "Y": -33.202327658862501, "X": -68.460564222349007, "Escriba el domicilio del reclamo, barrio y distrito": "Calle Mariano Gomez entre Rafael Obligado y José Hernández", "Adjunte foto del reclamo": null, "Usuario_1": "Gabriela Ortubia", "Fecha Solución": "14/07/2026 12:46", "Solución": "Le informamos que su reclamo ha sido derivado al área correspondiente.", "TIPO_S": "Reparacion / Reposicion" }, "geometry": { "type": "Point", "coordinates": [ -68.460564222349007, -33.202327658862501 ] } },
{ "type": "Feature", "properties": { "Nro": 52444, "Fecha": "14/07/2026 13:31", "Tipo": "WEB", "Usuario": "Gabriela Ortubia", "Área": "Reclamos", "Estado": "Proceso - Electrotécnia", "Nombre": "Gerardo", "Apellido": "Coria", "DNI": "sin datos", "Fecha Nacimiento": null, "Tel. Móvil": "26344444081", "Tel. Fijo": null, "Correo electrónico": "municipalidadrivadaviareclamos@gmail.com", "Tipo de reclamo": "Luminaria", "Descripción del reclamo": "Segunda luminaria de este a oeste a 30 metros de calle Chañar", "Domicilio del reclamo": "-33.1728054250098,-68.464769926085", "Y": -33.172805425009798, "X": -68.464769926084998, "Escriba el domicilio del reclamo, barrio y distrito": "Callejón Moga", "Adjunte foto del reclamo": null, "Usuario_1": "Gabriela Ortubia", "Fecha Solución": "14/07/2026 13:41", "Solución": "Le informamos que su reclamo ha sido derivado al área correspondiente.", "TIPO_S": "Reparacion / Reposicion" }, "geometry": { "type": "Point", "coordinates": [ -68.464769926084998, -33.172805425009798 ] } },
{ "type": "Feature", "properties": { "Nro": 52460, "Fecha": "15/07/2026 07:51", "Tipo": "WEB", "Usuario": "Daiana Ledesma", "Área": "Reclamos", "Estado": "Proceso - Electrotécnia", "Nombre": "Cristian", "Apellido": "Devito", "DNI": "22585079", "Fecha Nacimiento": null, "Tel. Móvil": "2634595580", "Tel. Fijo": null, "Correo electrónico": "municipalidadrivadaviareclamos@gmail.com", "Tipo de reclamo": "Luminaria", "Descripción del reclamo": "1 luminaria que tiene el cable cortado el vecino dice que no esta quemada la luminaria", "Domicilio del reclamo": "-33.2199572386106,-68.486206140532", "Y": -33.219957238610597, "X": -68.486206140532005, "Escriba el domicilio del reclamo, barrio y distrito": "pascual sosa s/n vuelta de la libertad  calle de tierra", "Adjunte foto del reclamo": null, "Usuario_1": "Daiana Ledesma", "Fecha Solución": "15/07/2026 07:59", "Solución": "Le informamos que su reclamo ha sido derivado al área correspondiente.", "TIPO_S": "Infraestructura" }, "geometry": { "type": "Point", "coordinates": [ -68.486206140532005, -33.219957238610597 ] } },
{ "type": "Feature", "properties": { "Nro": 52479, "Fecha": "15/07/2026 10:15", "Tipo": "WEB", "Usuario": null, "Área": "Reclamos", "Estado": "Proceso - Electrotécnia", "Nombre": "Marcela Eliana", "Apellido": "Gil", "DNI": "21373380", "Fecha Nacimiento": "04/03/1970", "Tel. Móvil": "2634646255", "Tel. Fijo": null, "Correo electrónico": "gilmarcela01@gmail.com", "Tipo de reclamo": "Luminaria", "Descripción del reclamo": "Luminaria rota en calle José Manuel Estrada y Mariano Moreno del barrio Marcial Pérez", "Domicilio del reclamo": "-33.192625647445,-68.471407570895", "Y": -33.192625647444999, "X": -68.471407570894996, "Escriba el domicilio del reclamo, barrio y distrito": "José Manuel Estrada y Mariano Moreno. Barrio Marcial Pérez", "Adjunte foto del reclamo": null, "Usuario_1": "Gabriela Ortubia", "Fecha Solución": "15/07/2026 10:26", "Solución": "Le informamos que su reclamo ha sido derivado al área correspondiente.", "TIPO_S": "Reparacion / Reposicion" }, "geometry": { "type": "Point", "coordinates": [ -68.471407570894996, -33.192625647444999 ] } },
{ "type": "Feature", "properties": { "Nro": 52561, "Fecha": "15/07/2026 23:00", "Tipo": "WEB", "Usuario": null, "Área": "Reclamos", "Estado": "Proceso - Electrotécnia", "Nombre": "Analia", "Apellido": "Bastias", "DNI": "24697473", "Fecha Nacimiento": "24/07/1975", "Tel. Móvil": "2634510005", "Tel. Fijo": null, "Correo electrónico": "analialbastias@yahoo.es", "Tipo de reclamo": "Luminaria", "Descripción del reclamo": "Se ha quemado el foco de la 1 luminaria. Vinieron a arreglar una y dejaron otra quemada.  Hace ya tiempo que no prende y frente a mi casa hay lotes vacíos con muchos yuyos altos y es peligroso pra los robos.", "Domicilio del reclamo": "-33.1764981030625,-68.476680682851", "Y": -33.176498103062499, "X": -68.476680682850997, "Escriba el domicilio del reclamo, barrio y distrito": "Barrio Prado Verde manzana E casa 2", "Adjunte foto del reclamo": null, "Usuario_1": "Daiana Ledesma", "Fecha Solución": "16/07/2026 07:12", "Solución": "Le informamos que su reclamo ha sido derivado al área correspondiente.", "TIPO_S": "Reparacion / Reposicion" }, "geometry": { "type": "Point", "coordinates": [ -68.476680682850997, -33.176498103062499 ] } },
{ "type": "Feature", "properties": { "Nro": 52570, "Fecha": "16/07/2026 08:54", "Tipo": "WEB", "Usuario": null, "Área": "Reclamos", "Estado": "Proceso - Electrotécnia", "Nombre": "Adrian", "Apellido": "Mendez", "DNI": "20578314", "Fecha Nacimiento": "31/10/1968", "Tel. Móvil": "2616372962", "Tel. Fijo": null, "Correo electrónico": "aamendezrodriguez@gmail.com", "Tipo de reclamo": "Luminaria", "Descripción del reclamo": "Tengo la luminaria de calle quemada en calle 12 de octubre 235 la central.", "Domicilio del reclamo": "-33.2755216950134,-68.310339720573", "Y": -33.275521695013403, "X": -68.310339720572998, "Escriba el domicilio del reclamo, barrio y distrito": "Calle 12 de octubre 235 la central", "Adjunte foto del reclamo": null, "Usuario_1": "Daiana Ledesma", "Fecha Solución": "16/07/2026 09:40", "Solución": "Le informamos que su reclamo ha sido derivado al área correspondiente.", "TIPO_S": "Reparacion / Reposicion" }, "geometry": { "type": "Point", "coordinates": [ -68.310339720572998, -33.275521695013403 ] } },
{ "type": "Feature", "properties": { "Nro": 52594, "Fecha": "16/07/2026 11:42", "Tipo": "WEB", "Usuario": "Daiana Ledesma", "Área": "Reclamos", "Estado": "Proceso - Electrotécnia", "Nombre": "VALENTINA", "Apellido": "VALIÑA", "DNI": "16362680", "Fecha Nacimiento": null, "Tel. Móvil": "2634957354", "Tel. Fijo": "0", "Correo electrónico": "municipalidadrivadaviareclamos@gmail.com", "Tipo de reclamo": "Luminaria", "Descripción del reclamo": "1 luminaria", "Domicilio del reclamo": "-33.1816056717372,-68.447110261931", "Y": -33.181605671737202, "X": -68.447110261931002, "Escriba el domicilio del reclamo, barrio y distrito": "calle eva peron casa 10 entre buchardo y godoy cruz", "Adjunte foto del reclamo": null, "Usuario_1": "Daiana Ledesma", "Fecha Solución": "16/07/2026 11:44", "Solución": "Le informamos que su reclamo ha sido derivado al área correspondiente.", "TIPO_S": "Reparacion / Reposicion" }, "geometry": { "type": "Point", "coordinates": [ -68.447110261931002, -33.181605671737202 ] } },
{ "type": "Feature", "properties": { "Nro": 52628, "Fecha": "17/07/2026 09:06", "Tipo": "WEB", "Usuario": null, "Área": "Reclamos", "Estado": "Proceso - Electrotécnia", "Nombre": "Daiana", "Apellido": "Cabrera", "DNI": "39084581", "Fecha Nacimiento": null, "Tel. Móvil": "2634372607", "Tel. Fijo": null, "Correo electrónico": "daianacc29@gmail.com", "Tipo de reclamo": "Luminaria", "Descripción del reclamo": "Mediante la presente me dirijo a usted, debido a que se solicita mediante quien corresponda el remplazo y/o reparación de iluminarias del Barrio Maria Emilia, sito Carril Florida entre Barrio Petifur y Barrio Sagrada Familia, Los Campamentos Rivadavia debido a que al tener malezas en las calles y falta me mantenimiento en espacios públicos se dificulta la visibilidad durante las noches por falta de iluminación para evitar un ilícito a mi propiedad  .", "Domicilio del reclamo": "-33.2806820591856,-68.394066896452", "Y": -33.280682059185601, "X": -68.394066896452003, "Escriba el domicilio del reclamo, barrio y distrito": "CARRIL FLORIDA BARRIO MARIA EMILIA ENTRE CALLE LA FLORIDA Y BARRIO PETITUR LOS CAMPAMENTOS RIVADAVIA", "Adjunte foto del reclamo": null, "Usuario_1": "Daiana Ledesma", "Fecha Solución": "17/07/2026 09:26", "Solución": "Le informamos que su reclamo ha sido derivado al área correspondiente.", "TIPO_S": "Reparacion / Reposicion" }, "geometry": { "type": "Point", "coordinates": [ -68.394066896452003, -33.280682059185601 ] } },
{ "type": "Feature", "properties": { "Nro": 52660, "Fecha": "17/07/2026 12:41", "Tipo": "WEB", "Usuario": null, "Área": "Reclamos", "Estado": "Proceso - Electrotécnia", "Nombre": "Noelia", "Apellido": "Gonzalez", "DNI": "32139215", "Fecha Nacimiento": null, "Tel. Móvil": "2634252629", "Tel. Fijo": null, "Correo electrónico": "emmagastonnoe33@gmail.com", "Tipo de reclamo": "Luminaria", "Descripción del reclamo": "Sin luz", "Domicilio del reclamo": "-33.2979666827706,-68.360504575156", "Y": -33.2979666827706, "X": -68.360504575156, "Escriba el domicilio del reclamo, barrio y distrito": "Calle La Bandera, barrio Albarracín Godoy-El mirador", "Adjunte foto del reclamo": null, "Usuario_1": "Daiana Ledesma", "Fecha Solución": "17/07/2026 13:08", "Solución": "Le informamos que su reclamo ha sido derivado al área correspondiente.", "TIPO_S": "Reparacion / Reposicion" }, "geometry": { "type": "Point", "coordinates": [ -68.360504575156, -33.2979666827706 ] } },
{ "type": "Feature", "properties": { "Nro": 52666, "Fecha": "17/07/2026 13:14", "Tipo": "WEB", "Usuario": "Daiana Ledesma", "Área": "Reclamos", "Estado": "Proceso - Electrotécnia", "Nombre": "Belen Rocio", "Apellido": "Gutierrez", "DNI": "36890646", "Fecha Nacimiento": null, "Tel. Móvil": "2612194782", "Tel. Fijo": null, "Correo electrónico": "mesaunicadeatencion@gmail.com", "Tipo de reclamo": "Luminaria", "Descripción del reclamo": "2 luminarias", "Domicilio del reclamo": "-33.1980161857414,-68.415861851486", "Y": -33.198016185741402, "X": -68.415861851486, "Escriba el domicilio del reclamo, barrio y distrito": "calle avellaneda entre liniers y pringles cejado al escribano Rosso", "Adjunte foto del reclamo": null, "Usuario_1": "Daiana Ledesma", "Fecha Solución": "17/07/2026 13:18", "Solución": "Le informamos que su reclamo ha sido derivado al área correspondiente.", "TIPO_S": "Reparacion / Reposicion" }, "geometry": { "type": "Point", "coordinates": [ -68.415861851486, -33.198016185741402 ] } },
{ "type": "Feature", "properties": { "Nro": 52680, "Fecha": "18/07/2026 11:48", "Tipo": "WEB", "Usuario": null, "Área": "Reclamos", "Estado": "Proceso - Electrotécnia", "Nombre": "Eliana", "Apellido": "Mesas", "DNI": "27449867", "Fecha Nacimiento": "10/10/1979", "Tel. Móvil": "2634615047", "Tel. Fijo": null, "Correo electrónico": "elianaluciamesas@yahoo.com", "Tipo de reclamo": "Luminaria", "Descripción del reclamo": "POR FAVOR NECESITO QUE CAMBIEN EL FOCO DE LA CALLE. NO SE VE NADA", "Domicilio del reclamo": "-33.1692715011505,-68.453319158485", "Y": -33.169271501150497, "X": -68.453319158485002, "Escriba el domicilio del reclamo, barrio y distrito": "Barrio posta san isidro ME C9", "Adjunte foto del reclamo": null, "Usuario_1": "Daiana Ledesma", "Fecha Solución": "20/07/2026 07:32", "Solución": "Le informamos que su reclamo ha sido derivado al área correspondiente.", "TIPO_S": "Reparacion / Reposicion" }, "geometry": { "type": "Point", "coordinates": [ -68.453319158485002, -33.169271501150497 ] } },
{ "type": "Feature", "properties": { "Nro": 52711, "Fecha": "20/07/2026 09:53", "Tipo": "WEB", "Usuario": "Daiana Ledesma", "Área": "Reclamos", "Estado": "Proceso - Electrotécnia", "Nombre": "ZULEMA", "Apellido": "RAMIREZ", "DNI": "21330588", "Fecha Nacimiento": null, "Tel. Móvil": "2616222914", "Tel. Fijo": null, "Correo electrónico": "municipalidadrivadaviareclamos@gmail.com", "Tipo de reclamo": "Luminaria", "Descripción del reclamo": "1 luminaria", "Domicilio del reclamo": "-33.2731475844985,-68.423850145354", "Y": -33.273147584498503, "X": -68.423850145353995, "Escriba el domicilio del reclamo, barrio y distrito": "calle estrella s/n al lado de la escuela baeza (campamentos)", "Adjunte foto del reclamo": null, "Usuario_1": "Daiana Ledesma", "Fecha Solución": "20/07/2026 09:55", "Solución": "Le informamos que su reclamo ha sido derivado al área correspondiente.", "TIPO_S": "Reparacion / Reposicion" }, "geometry": { "type": "Point", "coordinates": [ -68.423850145353995, -33.273147584498503 ] } },
{ "type": "Feature", "properties": { "Nro": 52730, "Fecha": "20/07/2026 11:12", "Tipo": "WEB", "Usuario": null, "Área": "Reclamos", "Estado": "Proceso - Electrotécnia", "Nombre": "gaston", "Apellido": "egea", "DNI": "24146148", "Fecha Nacimiento": "21/11/1974", "Tel. Móvil": "2612523741", "Tel. Fijo": null, "Correo electrónico": "egeagaston@hotmail.com", "Tipo de reclamo": "Luminaria", "Descripción del reclamo": "Luminaria no funciona en J. M. Estrada y M. Moreno", "Domicilio del reclamo": "-33.1940726713779,-68.471636381163", "Y": -33.194072671377903, "X": -68.471636381162995, "Escriba el domicilio del reclamo, barrio y distrito": "Estrada 497, Ciudad de Rivadavia", "Adjunte foto del reclamo": null, "Usuario_1": "Daiana Ledesma", "Fecha Solución": "20/07/2026 11:24", "Solución": "Le informamos que su reclamo ha sido derivado al área correspondiente.", "TIPO_S": "Reparacion / Reposicion" }, "geometry": { "type": "Point", "coordinates": [ -68.471636381162995, -33.194072671377903 ] } },
{ "type": "Feature", "properties": { "Nro": 52758, "Fecha": "20/07/2026 13:33", "Tipo": "WEB", "Usuario": "Daiana Ledesma", "Área": "Reclamos", "Estado": "Proceso - Electrotécnia", "Nombre": "Mario", "Apellido": "Quiroga", "DNI": "22988097", "Fecha Nacimiento": null, "Tel. Móvil": "2634285588", "Tel. Fijo": null, "Correo electrónico": "municipalidadrivadaviareclamos@gmail.com", "Tipo de reclamo": "Luminaria", "Descripción del reclamo": "2 luminaria", "Domicilio del reclamo": "-33.1821444336431,-68.522383775725", "Y": -33.182144433643103, "X": -68.522383775725004, "Escriba el domicilio del reclamo, barrio y distrito": "B° florencia courth mz B casa 12 (andrade)", "Adjunte foto del reclamo": null, "Usuario_1": "Daiana Ledesma", "Fecha Solución": "20/07/2026 13:34", "Solución": "Le informamos que su reclamo ha sido derivado al área correspondiente.", "TIPO_S": "Reparacion / Reposicion" }, "geometry": { "type": "Point", "coordinates": [ -68.522383775725004, -33.182144433643103 ] } },
{ "type": "Feature", "properties": { "Nro": 52791, "Fecha": "21/07/2026 09:25", "Tipo": "WEB", "Usuario": null, "Área": "Reclamos", "Estado": "Proceso - Electrotécnia", "Nombre": "Elio", "Apellido": "Barrio", "DNI": "24631568", "Fecha Nacimiento": "29/07/1975", "Tel. Móvil": "2634540771", "Tel. Fijo": null, "Correo electrónico": "eliobarrio045@gmail.com", "Tipo de reclamo": "Luminaria", "Descripción del reclamo": "Sin luces funcionando en calles Avellaneda, sargento Cabral, Gaviola, etc", "Domicilio del reclamo": "-33.1865280317163,-68.452026214089", "Y": -33.1865280317163, "X": -68.452026214089003, "Escriba el domicilio del reclamo, barrio y distrito": "Sargento Cabral y Gaviola", "Adjunte foto del reclamo": null, "Usuario_1": "Daiana Ledesma", "Fecha Solución": "21/07/2026 10:35", "Solución": "Le informamos que su reclamo ha sido derivado al área correspondiente.", "TIPO_S": "Reparacion / Reposicion" }, "geometry": { "type": "Point", "coordinates": [ -68.452026214089003, -33.1865280317163 ] } },
{ "type": "Feature", "properties": { "Nro": 52817, "Fecha": "21/07/2026 10:45", "Tipo": "WEB", "Usuario": "Daiana Ledesma", "Área": "Reclamos", "Estado": "Proceso - Electrotécnia", "Nombre": "Maria del Carmen", "Apellido": "Nuñez", "DNI": "10274849", "Fecha Nacimiento": null, "Tel. Móvil": "sin datos", "Tel. Fijo": null, "Correo electrónico": "municipalidadrivadaviareclamos@gmail.com", "Tipo de reclamo": "Luminaria", "Descripción del reclamo": "1 luminaria", "Domicilio del reclamo": "-33.1901895506276,-68.44994267465", "Y": -33.190189550627601, "X": -68.449942674650003, "Escriba el domicilio del reclamo, barrio y distrito": "Echeverría y mariano gomez", "Adjunte foto del reclamo": null, "Usuario_1": "Daiana Ledesma", "Fecha Solución": "21/07/2026 10:47", "Solución": "Le informamos que su reclamo ha sido derivado al área correspondiente.", "TIPO_S": "Reparacion / Reposicion" }, "geometry": { "type": "Point", "coordinates": [ -68.449942674650003, -33.190189550627601 ] } },
{ "type": "Feature", "properties": { "Nro": 52823, "Fecha": "21/07/2026 11:09", "Tipo": "WEB", "Usuario": "Daiana Ledesma", "Área": "Reclamos", "Estado": "Proceso - Electrotécnia", "Nombre": "Guido Alberto", "Apellido": "Medina", "DNI": "22525919", "Fecha Nacimiento": null, "Tel. Móvil": "2634933280", "Tel. Fijo": null, "Correo electrónico": "municipalidadrivadaviareclamos@gmail.com", "Tipo de reclamo": "Luminaria", "Descripción del reclamo": "1 luminaria", "Domicilio del reclamo": "-33.1833708556091,-68.453005583823", "Y": -33.183370855609098, "X": -68.453005583823, "Escriba el domicilio del reclamo, barrio y distrito": "lamadrid y godoy cruz sobre godoy cruz (ciudad)", "Adjunte foto del reclamo": null, "Usuario_1": "Daiana Ledesma", "Fecha Solución": "21/07/2026 11:13", "Solución": "Le informamos que su reclamo ha sido derivado al área correspondiente.", "TIPO_S": "Reparacion / Reposicion" }, "geometry": { "type": "Point", "coordinates": [ -68.453005583823, -33.183370855609098 ] } },
{ "type": "Feature", "properties": { "Nro": 52825, "Fecha": "21/07/2026 11:13", "Tipo": "WEB", "Usuario": "Daiana Ledesma", "Área": "Reclamos", "Estado": "Proceso - Electrotécnia", "Nombre": "Veronica", "Apellido": "Páez", "DNI": "25019214", "Fecha Nacimiento": null, "Tel. Móvil": "2634571870", "Tel. Fijo": null, "Correo electrónico": "municipalidadrivadaviareclamos@gmail.com", "Tipo de reclamo": "Luminaria", "Descripción del reclamo": "1 luminaria", "Domicilio del reclamo": "-33.1841039672504,-68.448799632788", "Y": -33.184103967250401, "X": -68.448799632787996, "Escriba el domicilio del reclamo, barrio y distrito": "Avellaneda y arenales", "Adjunte foto del reclamo": null, "Usuario_1": "Daiana Ledesma", "Fecha Solución": "21/07/2026 11:15", "Solución": "Le informamos que su reclamo ha sido derivado al área correspondiente.", "TIPO_S": "Reparacion / Reposicion" }, "geometry": { "type": "Point", "coordinates": [ -68.448799632787996, -33.184103967250401 ] } },
{ "type": "Feature", "properties": { "Nro": 52827, "Fecha": "21/07/2026 11:17", "Tipo": "WEB", "Usuario": "Daiana Ledesma", "Área": "Reclamos", "Estado": "Proceso - Electrotécnia", "Nombre": "Veronica", "Apellido": "Páez", "DNI": "25019214", "Fecha Nacimiento": null, "Tel. Móvil": "2634571870", "Tel. Fijo": null, "Correo electrónico": "municipalidadrivadaviareclamos@gmail.com", "Tipo de reclamo": "Luminaria", "Descripción del reclamo": "varias luminarias", "Domicilio del reclamo": "-33.1821803509857,-68.52264126779", "Y": -33.182180350985703, "X": -68.522641267789993, "Escriba el domicilio del reclamo, barrio y distrito": "andrade calle de atrás de la capilla  casita de madera al lado de capilla", "Adjunte foto del reclamo": null, "Usuario_1": "Daiana Ledesma", "Fecha Solución": "21/07/2026 11:19", "Solución": "Le informamos que su reclamo ha sido derivado al área correspondiente.", "TIPO_S": "Reparacion / Reposicion" }, "geometry": { "type": "Point", "coordinates": [ -68.522641267789993, -33.182180350985703 ] } },
{ "type": "Feature", "properties": { "Nro": 52829, "Fecha": "21/07/2026 11:27", "Tipo": "WEB", "Usuario": "Daiana Ledesma", "Área": "Reclamos", "Estado": "Proceso - Electrotécnia", "Nombre": "Alejandra", "Apellido": "Pastran", "DNI": "21770324", "Fecha Nacimiento": null, "Tel. Móvil": "2634606570", "Tel. Fijo": null, "Correo electrónico": "municipalidadrivadaviareclamos@gmail.com", "Tipo de reclamo": "Luminaria", "Descripción del reclamo": "varias luminarias  la vecina también asegura estar pagando una luminaria que no tiene enfrente de su domicilio", "Domicilio del reclamo": "-33.248925226594,-68.447153177275", "Y": -33.248925226593997, "X": -68.447153177274998, "Escriba el domicilio del reclamo, barrio y distrito": "unión y calle arroyo", "Adjunte foto del reclamo": null, "Usuario_1": "Daiana Ledesma", "Fecha Solución": "21/07/2026 11:30", "Solución": "Le informamos que su reclamo ha sido derivado al área correspondiente.", "TIPO_S": "Reparacion / Reposicion" }, "geometry": { "type": "Point", "coordinates": [ -68.447153177274998, -33.248925226593997 ] } },
{ "type": "Feature", "properties": { "Nro": 52833, "Fecha": "21/07/2026 12:02", "Tipo": "WEB", "Usuario": "Daiana Ledesma", "Área": "Reclamos", "Estado": "Proceso - Electrotécnia", "Nombre": "Marcelo Javier", "Apellido": "Gimenez", "DNI": "21817728", "Fecha Nacimiento": null, "Tel. Móvil": "2634330362", "Tel. Fijo": null, "Correo electrónico": "municipalidadrivadaviareclamos@gmail.com", "Tipo de reclamo": "Luminaria", "Descripción del reclamo": "1 luminaria", "Domicilio del reclamo": "-33.1831417,-68.4600411", "Y": -33.1831417, "X": -68.4600411, "Escriba el domicilio del reclamo, barrio y distrito": "liniers 165 ( ciudad)", "Adjunte foto del reclamo": null, "Usuario_1": "Daiana Ledesma", "Fecha Solución": "21/07/2026 12:04", "Solución": "Le informamos que su reclamo ha sido derivado al área correspondiente.", "TIPO_S": "Reparacion / Reposicion" }, "geometry": { "type": "Point", "coordinates": [ -68.4600411, -33.1831417 ] } },
{ "type": "Feature", "properties": { "Nro": 52845, "Fecha": "21/07/2026 13:09", "Tipo": "WEB", "Usuario": "Daiana Ledesma", "Área": "Reclamos", "Estado": "Proceso - Electrotécnia", "Nombre": "Cristian", "Apellido": "Devito", "DNI": "22585079", "Fecha Nacimiento": null, "Tel. Móvil": "2634595580", "Tel. Fijo": null, "Correo electrónico": "municipalidadrivadaviareclamos@gmail.com", "Tipo de reclamo": "Luminaria", "Descripción del reclamo": "poner la luz en la calle mueva gil asta la rosa pero no se puede caminar", "Domicilio del reclamo": "-33.2796057454711,-68.296262826933", "Y": -33.279605745471102, "X": -68.296262826933003, "Escriba el domicilio del reclamo, barrio y distrito": "nueva gil calle el dique mano izquierda frente a finca eugenio ferreyra", "Adjunte foto del reclamo": null, "Usuario_1": "Daiana Ledesma", "Fecha Solución": "21/07/2026 13:14", "Solución": "Le informamos que su reclamo ha sido derivado al área correspondiente.", "TIPO_S": "Obra / Extension de Red" }, "geometry": { "type": "Point", "coordinates": [ -68.296262826933003, -33.279605745471102 ] } },
{ "type": "Feature", "properties": { "Nro": 52846, "Fecha": "21/07/2026 13:15", "Tipo": "WEB", "Usuario": "Daiana Ledesma", "Área": "Reclamos", "Estado": "Proceso - Electrotécnia", "Nombre": "Cristian", "Apellido": "Devito", "DNI": "22585079", "Fecha Nacimiento": null, "Tel. Móvil": "2634595580", "Tel. Fijo": null, "Correo electrónico": "municipalidadrivadaviareclamos@gmail.com", "Tipo de reclamo": "Luminaria", "Descripción del reclamo": "Soy un vecino del barrio lencina calle octavio kermes a media cuadra de centro de salud una año y medio q no funciona la luz de la calle el reclamo lo emos echo varias veces con lo vecino", "Domicilio del reclamo": "-33.2773275043348,-68.393627014174", "Y": -33.277327504334799, "X": -68.393627014174001, "Escriba el domicilio del reclamo, barrio y distrito": "B° lencinas calle octavio kermes", "Adjunte foto del reclamo": null, "Usuario_1": "Daiana Ledesma", "Fecha Solución": "21/07/2026 13:18", "Solución": "Le informamos que su reclamo ha sido derivado al área correspondiente.", "TIPO_S": "Reparacion / Reposicion" }, "geometry": { "type": "Point", "coordinates": [ -68.393627014174001, -33.277327504334799 ] } },
{ "type": "Feature", "properties": { "Nro": 52847, "Fecha": "21/07/2026 13:19", "Tipo": "WEB", "Usuario": "Daiana Ledesma", "Área": "Reclamos", "Estado": "Proceso - Electrotécnia", "Nombre": "Cristian", "Apellido": "Devito", "DNI": "22585079", "Fecha Nacimiento": null, "Tel. Móvil": "2634595580", "Tel. Fijo": null, "Correo electrónico": "municipalidadrivadaviareclamos@gmail.com", "Tipo de reclamo": "Luminaria", "Descripción del reclamo": "Muy buenos dias yo le pido que nos ayude con la iluminaria en la calle estrella que solo tenemos la mitad y falta la otra mitad hasta el carril y hsy muchos niños que caminan al carril y esta muy oscuro gracias", "Domicilio del reclamo": "-33.267532184085,-68.422262277617", "Y": -33.267532184084999, "X": -68.422262277616994, "Escriba el domicilio del reclamo, barrio y distrito": "calle estrella s/n  ( campamentos)", "Adjunte foto del reclamo": null, "Usuario_1": "Daiana Ledesma", "Fecha Solución": "21/07/2026 13:21", "Solución": "Le informamos que su reclamo ha sido derivado al área correspondiente.", "TIPO_S": "Obra / Extension de Red" }, "geometry": { "type": "Point", "coordinates": [ -68.422262277616994, -33.267532184084999 ] } },
{ "type": "Feature", "properties": { "Nro": 52848, "Fecha": "21/07/2026 13:21", "Tipo": "WEB", "Usuario": "Daiana Ledesma", "Área": "Reclamos", "Estado": "Proceso - Electrotécnia", "Nombre": "Cristian", "Apellido": "Devito", "DNI": "22585079", "Fecha Nacimiento": null, "Tel. Móvil": "2634595580", "Tel. Fijo": null, "Correo electrónico": "municipalidadrivadaviareclamos@gmail.com", "Tipo de reclamo": "Luminaria", "Descripción del reclamo": "Hola las iluminarias en la calle galigniana cómo puede ser que pongan una adentro de una casa nosotros necesitamos en la calle y otra la tapa un pimiento porque no se ve nada en la calle", "Domicilio del reclamo": "-33.243685136864,-68.482558336272", "Y": -33.243685136864002, "X": -68.482558336272007, "Escriba el domicilio del reclamo, barrio y distrito": "calle galigniana s/n", "Adjunte foto del reclamo": null, "Usuario_1": "Daiana Ledesma", "Fecha Solución": "21/07/2026 13:23", "Solución": "Le informamos que su reclamo ha sido derivado al área correspondiente.", "TIPO_S": "Reparacion / Reposicion" }, "geometry": { "type": "Point", "coordinates": [ -68.482558336272007, -33.243685136864002 ] } },
{ "type": "Feature", "properties": { "Nro": 52857, "Fecha": "21/07/2026 17:41", "Tipo": "WEB", "Usuario": null, "Área": "Reclamos", "Estado": "Proceso - Electrotécnia", "Nombre": "Nicolas", "Apellido": "Gerez", "DNI": "35514296", "Fecha Nacimiento": null, "Tel. Móvil": "2634333691", "Tel. Fijo": null, "Correo electrónico": "nicolasmg590@gmail.com", "Tipo de reclamo": "Luminaria", "Descripción del reclamo": "Hola, tenemos luminaria que no funciona en Barrio Juventud a la altura casa B - 1", "Domicilio del reclamo": "-33.2019057262277,-68.463691678061", "Y": -33.2019057262277, "X": -68.463691678060997, "Escriba el domicilio del reclamo, barrio y distrito": "BARRIO JUVENTUD B-1 RIVADAVIA MENDOZA", "Adjunte foto del reclamo": null, "Usuario_1": "Daiana Ledesma", "Fecha Solución": "22/07/2026 07:08", "Solución": "Le informamos que su reclamo ha sido derivado al área correspondiente.", "TIPO_S": "Reparacion / Reposicion" }, "geometry": { "type": "Point", "coordinates": [ -68.463691678060997, -33.2019057262277 ] } },
{ "type": "Feature", "properties": { "Nro": 52899, "Fecha": "22/07/2026 11:20", "Tipo": "WEB", "Usuario": null, "Área": "Reclamos", "Estado": "Proceso - Electrotécnia", "Nombre": "Marianela", "Apellido": "alarcon", "DNI": "33439231", "Fecha Nacimiento": "03/03/1988", "Tel. Móvil": "2634366576", "Tel. Fijo": null, "Correo electrónico": "marianelaalarcon02@gmail.com", "Tipo de reclamo": "Luminaria", "Descripción del reclamo": "Farol de la calle", "Domicilio del reclamo": "-33.1911592246537,-68.463010396971", "Y": -33.191159224653703, "X": -68.463010396971001, "Escriba el domicilio del reclamo, barrio y distrito": "Echeverría 748", "Adjunte foto del reclamo": null, "Usuario_1": "Daiana Ledesma", "Fecha Solución": "22/07/2026 11:44", "Solución": "Le informamos que su reclamo ha sido derivado al área correspondiente.", "TIPO_S": "Reparacion / Reposicion" }, "geometry": { "type": "Point", "coordinates": [ -68.463010396971001, -33.191159224653703 ] } },
{ "type": "Feature", "properties": { "Nro": 52901, "Fecha": "22/07/2026 11:43", "Tipo": "WEB", "Usuario": null, "Área": "Reclamos", "Estado": "Proceso - Electrotécnia", "Nombre": "Melisa", "Apellido": "Pérez", "DNI": "37515590", "Fecha Nacimiento": null, "Tel. Móvil": "2634808930", "Tel. Fijo": null, "Correo electrónico": "anperez0293@gmail.com", "Tipo de reclamo": "Luminaria", "Descripción del reclamo": "La luminaria publica de mí domicilio y el de tres vecinos más, no funcionan correctamente, son intermitentes si anda una la otra se apaga. No es mí primer reclamo. Los vecinos tenemos la calle como acceso alas paradas de colectivos de la frecuencia de Santa María de Oro, los horarios de tarde noche no es posible ni ver por dónde se camina, siendo que el descuento de la luminaria de la calle nos las descuentan en cada boleta y se paga. Desde ya muchas gracias", "Domicilio del reclamo": "-33.1981631483165,-68.424053365824", "Y": -33.198163148316503, "X": -68.424053365823994, "Escriba el domicilio del reclamo, barrio y distrito": "Vicente Gil antes de Avellaneda, Santa María de Oro, Rivadavia", "Adjunte foto del reclamo": null, "Usuario_1": "Daiana Ledesma", "Fecha Solución": "22/07/2026 11:54", "Solución": "Le informamos que su reclamo ha sido derivado al área correspondiente.", "TIPO_S": "Mantenimiento Operativo" }, "geometry": { "type": "Point", "coordinates": [ -68.424053365823994, -33.198163148316503 ] } },
{ "type": "Feature", "properties": { "Nro": 52904, "Fecha": "22/07/2026 11:51", "Tipo": "WEB", "Usuario": null, "Área": "Reclamos", "Estado": "Proceso - Electrotécnia", "Nombre": "Eliana", "Apellido": "Escobar", "DNI": "28550633", "Fecha Nacimiento": "10/02/1981", "Tel. Móvil": "2634535046", "Tel. Fijo": null, "Correo electrónico": "elianaescobar81@gmail.com", "Tipo de reclamo": "Luminaria", "Descripción del reclamo": "El alumbrado público hace 2 días que enciende tarde aproximadamente 8:30, está muy oscuro y la zona no es segura. En la mañana también se encuentran apagada a las 7 am tmb esa muy oscuro y con respecto a la luminaria de otras calles se encuentran encendidas. Esto ocurre en la calle sargento Cabral entre Avellaneda y Córdoba es la única zona que se percibe q está apagada la luminaria.", "Domicilio del reclamo": "-33.1857743213943,-68.451644161213", "Y": -33.185774321394298, "X": -68.451644161212997, "Escriba el domicilio del reclamo, barrio y distrito": "Sargento Cabral 1751", "Adjunte foto del reclamo": null, "Usuario_1": "Daiana Ledesma", "Fecha Solución": "22/07/2026 12:10", "Solución": "Le informamos que su reclamo ha sido derivado al área correspondiente.", "TIPO_S": "Mantenimiento Operativo" }, "geometry": { "type": "Point", "coordinates": [ -68.451644161212997, -33.185774321394298 ] } },
{ "type": "Feature", "properties": { "Nro": 52937, "Fecha": "22/07/2026 21:31", "Tipo": "WEB", "Usuario": null, "Área": "Reclamos", "Estado": "Proceso - Electrotécnia", "Nombre": "Mabel", "Apellido": "Lombardi", "DNI": "13871912", "Fecha Nacimiento": "11/11/1960", "Tel. Móvil": "2634560329", "Tel. Fijo": null, "Correo electrónico": "mabelita1160@hotmail.com", "Tipo de reclamo": "Luminaria", "Descripción del reclamo": "Luminaria quemada en la calle José Manuel Estrada 487 de hace varios días.", "Domicilio del reclamo": "-33.1943610906503,-68.471472347318", "Y": -33.194361090650297, "X": -68.471472347317999, "Escriba el domicilio del reclamo, barrio y distrito": "Jose Manuel Estrada Barrio Marcial Perez ciudad", "Adjunte foto del reclamo": null, "Usuario_1": "Daiana Ledesma", "Fecha Solución": "23/07/2026 08:15", "Solución": "Le informamos que su reclamo ha sido derivado al área correspondiente.", "TIPO_S": "Reparacion / Reposicion" }, "geometry": { "type": "Point", "coordinates": [ -68.471472347317999, -33.194361090650297 ] } },
{ "type": "Feature", "properties": { "Nro": 52947, "Fecha": "23/07/2026 08:18", "Tipo": "WEB", "Usuario": null, "Área": "Reclamos", "Estado": "Proceso - Electrotécnia", "Nombre": "Claudia", "Apellido": "Rodríguez", "DNI": "24631437", "Fecha Nacimiento": null, "Tel. Móvil": "2634519627", "Tel. Fijo": null, "Correo electrónico": "clalorodriguez@yahoo.com.ar", "Tipo de reclamo": "Luminaria", "Descripción del reclamo": "Luminaria desde varios meses quemada, lo que es un riesgo por la oscuridad en el lugar.", "Domicilio del reclamo": "-33.1740509955819,-68.497766658512", "Y": -33.174050995581901, "X": -68.497766658512006, "Escriba el domicilio del reclamo, barrio y distrito": "Barrio Cooperativa Eléctrica Calle Río Blanco y Río Atuel", "Adjunte foto del reclamo": null, "Usuario_1": "Daiana Ledesma", "Fecha Solución": "23/07/2026 08:46", "Solución": "Le informamos que su reclamo ha sido derivado al área correspondiente.", "TIPO_S": "Reparacion / Reposicion" }, "geometry": { "type": "Point", "coordinates": [ -68.497766658512006, -33.174050995581901 ] } },
{ "type": "Feature", "properties": { "Nro": 52977, "Fecha": "23/07/2026 10:44", "Tipo": "WEB", "Usuario": null, "Área": "Reclamos", "Estado": "Proceso - Electrotécnia", "Nombre": "Mabel", "Apellido": "Lombardi", "DNI": "13871912", "Fecha Nacimiento": "11/11/1960", "Tel. Móvil": "2634560329", "Tel. Fijo": null, "Correo electrónico": "mabelita1160@hotmail.com", "Tipo de reclamo": "Luminaria", "Descripción del reclamo": "Luminaria quemada en la calle desde hace 1 mes.", "Domicilio del reclamo": "-33.1941506643321,-68.471766550155", "Y": -33.194150664332099, "X": -68.471766550154996, "Escriba el domicilio del reclamo, barrio y distrito": "Jose Manuel Estrada Barrio Marcial Perez ciudad", "Adjunte foto del reclamo": null, "Usuario_1": "Daiana Ledesma", "Fecha Solución": "23/07/2026 10:49", "Solución": "Le informamos que su reclamo ha sido derivado al área correspondiente.", "TIPO_S": "Reparacion / Reposicion" }, "geometry": { "type": "Point", "coordinates": [ -68.471766550154996, -33.194150664332099 ] } },
{ "type": "Feature", "properties": { "Nro": 52984, "Fecha": "23/07/2026 11:25", "Tipo": "WEB", "Usuario": null, "Área": "Reclamos", "Estado": "Proceso - Electrotécnia", "Nombre": "MARINA", "Apellido": "MARCHETTI", "DNI": "17463983", "Fecha Nacimiento": "16/11/1965", "Tel. Móvil": "2634407164", "Tel. Fijo": "0", "Correo electrónico": "anamarinaoro@yahoo.com.ar", "Tipo de reclamo": "Luminaria", "Descripción del reclamo": "Varias luminarias quemadas en plaza San Martin.", "Domicilio del reclamo": "-33.1910694404726,-68.45454534532", "Y": -33.191069440472603, "X": -68.45454534532, "Escriba el domicilio del reclamo, barrio y distrito": "Alejandro Aguado 1253, M5577 Rivadavia, Mendoza, Argentina", "Adjunte foto del reclamo": null, "Usuario_1": "Daiana Ledesma", "Fecha Solución": "23/07/2026 12:14", "Solución": "Le informamos que su reclamo ha sido derivado al área correspondiente.", "TIPO_S": "Reparacion / Reposicion" }, "geometry": { "type": "Point", "coordinates": [ -68.45454534532, -33.191069440472603 ] } },
{ "type": "Feature", "properties": { "Nro": 52989, "Fecha": "23/07/2026 11:50", "Tipo": "WEB", "Usuario": null, "Área": "Reclamos", "Estado": "Proceso - Electrotécnia", "Nombre": "María", "Apellido": "Victoria", "DNI": "34756279", "Fecha Nacimiento": "03/03/1990", "Tel. Móvil": "2634566601", "Tel. Fijo": null, "Correo electrónico": "vickysoto390@gmail.com", "Tipo de reclamo": "Luminaria", "Descripción del reclamo": "Calle albardón de los arboles-reduccion las luminarias funcionan por tramos.<br />Desde calle chilecito hacia el sur hay 12 luminarias que no funcionan. <br />Luego; desde el puente del río hacia el carril viejo reducción hay 20 mas sin funcionar.", "Domicilio del reclamo": "-33.1862478947787,-68.567283954634", "Y": -33.186247894778703, "X": -68.567283954633993, "Escriba el domicilio del reclamo, barrio y distrito": "Calle albardón", "Adjunte foto del reclamo": null, "Usuario_1": "Daiana Ledesma", "Fecha Solución": "23/07/2026 12:14", "Solución": "Le informamos que su reclamo ha sido derivado al área correspondiente.", "TIPO_S": "Reparacion / Reposicion" }, "geometry": { "type": "Point", "coordinates": [ -68.567283954633993, -33.186247894778703 ] } },
{ "type": "Feature", "properties": { "Nro": 52996, "Fecha": "23/07/2026 12:44", "Tipo": "WEB", "Usuario": "Daiana Ledesma", "Área": "Reclamos", "Estado": "Proceso - Electrotécnia", "Nombre": "Carlos Alberto", "Apellido": "Palazzo", "DNI": "8369265", "Fecha Nacimiento": null, "Tel. Móvil": "2634308967", "Tel. Fijo": null, "Correo electrónico": "municipalidadrivadaviareclamos@gmail.com", "Tipo de reclamo": "Luminaria", "Descripción del reclamo": "1 luminaria quemada", "Domicilio del reclamo": "-33.1729446194636,-68.463922348036", "Y": -33.1729446194636, "X": -68.463922348035993, "Escriba el domicilio del reclamo, barrio y distrito": "chañar y moga sobre moga segunda farola", "Adjunte foto del reclamo": null, "Usuario_1": "Daiana Ledesma", "Fecha Solución": "23/07/2026 12:47", "Solución": "Le informamos que su reclamo ha sido derivado al área correspondiente.", "TIPO_S": "Reparacion / Reposicion" }, "geometry": { "type": "Point", "coordinates": [ -68.463922348035993, -33.1729446194636 ] } }
]
}
